prefecture,city,district,island,zipcode
北海道,奥尻郡奥尻町,奥尻,奥尻島,043-1401
北海道,奥尻郡奥尻町,赤石,奥尻島,043-1402
北海道,奥尻郡奥尻町,球浦,奥尻島,043-1403
北海道,奥尻郡奥尻町,宮津,奥尻島,043-1404
北海道,奥尻郡奥尻町,稲穂,奥尻島,043-1405
北海道,奥尻郡奥尻町,湯浜,奥尻島,043-1406
北海道,奥尻郡奥尻町,青苗,奥尻島,043-1521
北海道,奥尻郡奥尻町,富里,奥尻島,043-1522
北海道,奥尻郡奥尻町,松江,奥尻島,043-1523
北海道,奥尻郡奥尻町,米岡,奥尻島,043-1524
北海道,奥尻郡奥尻町,湯浜,奥尻島,043-1525
北海道,苫前郡羽幌町,焼尻,焼尻島,078-3871
北海道,苫前郡羽幌町,天売,天売島,078-3951
北海道,苫前郡羽幌町,天売,天売島,078-3952
北海道,苫前郡羽幌町,天売,天売島,078-3953
北海道,苫前郡羽幌町,天売,天売島,078-3954
北海道,苫前郡羽幌町,天売,天売島,078-3955
北海道,礼文郡礼文町,船泊村,礼文島,097-1111
北海道,礼文郡礼文町,香深村,礼文島,097-1201
北海道,礼文郡礼文町,船泊村,礼文島,097-1202
北海道,利尻郡利尻町,仙法志,利尻島,097-0311
北海道,利尻郡利尻町,沓形,利尻島,097-0401
北海道,利尻郡利尻富士町,鴛泊,利尻島,097-0101
北海道,利尻郡利尻富士町,鬼脇,利尻島,097-0211
宮城県,石巻市,田代浜,　,986-0023
宮城県,石巻市,小竹浜,　,986-2116
宮城県,石巻市,長渡浜,　,986-2525
宮城県,石巻市,網地浜,　,986-2526
宮城県,塩竈市,浦戸石浜,浦戸石浜,985-0191
宮城県,塩竈市,浦戸桂島,浦戸桂島,985-0192
宮城県,塩竈市,浦戸野々島,浦戸野々島,985-0193
宮城県,塩竈市,浦戸寒風沢,浦戸寒風沢,985-0194
宮城県,塩竈市,浦戸朴島,浦戸朴島,985-0195
宮城県,気仙沼市,外浜,大島,988-0601
宮城県,気仙沼市,大初平,大島,988-0602
宮城県,気仙沼市,外畑,大島,988-0603
宮城県,気仙沼市,廻舘,大島,988-0604
宮城県,気仙沼市,浦の浜,大島,988-0605
宮城県,気仙沼市,磯草,大島,988-0606
宮城県,気仙沼市,亀山,大島,988-0607
宮城県,気仙沼市,田尻,大島,988-0611
宮城県,気仙沼市,大向,大島,988-0612
宮城県,気仙沼市,高井,大島,988-0613
宮城県,気仙沼市,長崎,大島,988-0621
宮城県,気仙沼市,中山,大島,988-0622
宮城県,気仙沼市,浅根,大島,988-0623
宮城県,気仙沼市,三作浜,大島,988-0631
宮城県,気仙沼市,横沼,大島,988-0632
宮城県,気仙沼市,駒形,大島,988-0633
宮城県,気仙沼市,要害,大島,988-0634
宮城県,牡鹿郡女川町,出島,　,986-2211
宮城県,牡鹿郡女川町,江島,　,986-2212
山形県,酒田市,飛島,　,998-0281
東京都,大島町,元町,大島,100-0101
東京都,大島町,岡田,大島,100-0102
東京都,大島町,泉津,大島,100-0103
東京都,大島町,野増,大島,100-0104
東京都,大島町,差木地,大島,100-0211
東京都,大島町,波浮港,大島,100-0212
東京都,利島村,　,利島,100-0301
東京都,新島村,若郷,新島,100-0401
東京都,新島村,本村,新島,100-0402
東京都,新島村,式根島,式根島,100-0511
東京都,神津島村,　,神津島,100-0601
東京都,三宅島三宅村,神着,三宅島,100-1101
東京都,三宅島三宅村,伊豆,三宅島,100-1102
東京都,三宅島三宅村,伊ケ谷,三宅島,100-1103
東京都,三宅島三宅村,坪田,三宅島,100-1211
東京都,三宅島三宅村,阿古,三宅島,100-1212
東京都,三宅島三宅村,雄山,三宅島,100-1213
東京都,御蔵島村,　,御蔵島,100-1301
東京都,八丈島八丈町,大賀郷,八丈島,100-1401
東京都,八丈島八丈町,三根,八丈島,100-1511
東京都,八丈島八丈町,樫立,八丈島,100-1621
東京都,八丈島八丈町,末吉,八丈島,100-1622
東京都,八丈島八丈町,中之郷,八丈島,100-1623
東京都,青ヶ島村,　,八丈青ヶ島,100-1701
東京都,小笠原村,父島,父島,100-2101
東京都,小笠原村,母島,母島,100-2211
新潟県,佐渡市,白瀬,佐渡島,952-0001
新潟県,佐渡市,北五十里,佐渡島,952-0002
新潟県,佐渡市,椿,佐渡島,952-0003
新潟県,佐渡市,羽吉,佐渡島,952-0004
新潟県,佐渡市,梅津,佐渡島,952-0005
新潟県,佐渡市,春日,佐渡島,952-0006
新潟県,佐渡市,浜田,佐渡島,952-0007
新潟県,佐渡市,両津夷,佐渡島,952-0011
新潟県,佐渡市,両津夷新,佐渡島,952-0012
新潟県,佐渡市,両津福浦,佐渡島,952-0013
新潟県,佐渡市,両津湊,佐渡島,952-0014
新潟県,佐渡市,住吉,佐渡島,952-0015
新潟県,佐渡市,原黒,佐渡島,952-0016
新潟県,佐渡市,秋津,佐渡島,952-0021
新潟県,佐渡市,旭,佐渡島,952-0022
新潟県,佐渡市,潟端,佐渡島,952-0023
新潟県,佐渡市,上横山,佐渡島,952-0024
新潟県,佐渡市,下横山,佐渡島,952-0025
新潟県,佐渡市,立野,佐渡島,952-0026
新潟県,佐渡市,長江,佐渡島,952-0027
新潟県,佐渡市,加茂歌代,佐渡島,952-0028
新潟県,佐渡市,新穂長畝,佐渡島,952-0101
新潟県,佐渡市,新穂青木,佐渡島,952-0102
新潟県,佐渡市,新穂潟上,佐渡島,952-0103
新潟県,佐渡市,新穂田野沢,佐渡島,952-0104
新潟県,佐渡市,新穂正明寺,佐渡島,952-0105
新潟県,佐渡市,新穂瓜生屋,佐渡島,952-0106
新潟県,佐渡市,新穂井内,佐渡島,952-0107
新潟県,佐渡市,上新穂,佐渡島,952-0108
新潟県,佐渡市,新穂大野,佐渡島,952-0109
新潟県,佐渡市,新穂武井,佐渡島,952-0111
新潟県,佐渡市,新穂舟下,佐渡島,952-0112
新潟県,佐渡市,新穂皆川,佐渡島,952-0113
新潟県,佐渡市,下新穂,佐渡島,952-0114
新潟県,佐渡市,新穂北方,佐渡島,952-0115
新潟県,佐渡市,新穂,佐渡島,952-0116
新潟県,佐渡市,目黒町,佐渡島,952-0201
新潟県,佐渡市,栗野江,佐渡島,952-0202
新潟県,佐渡市,坊ケ浦,佐渡島,952-0203
新潟県,佐渡市,長谷,佐渡島,952-0204
新潟県,佐渡市,小倉,佐渡島,952-0205
新潟県,佐渡市,畑野,佐渡島,952-0206
新潟県,佐渡市,寺田,佐渡島,952-0207
新潟県,佐渡市,畉田,佐渡島,952-0211
新潟県,佐渡市,宮川,佐渡島,952-0212
新潟県,佐渡市,飯持,佐渡島,952-0213
新潟県,佐渡市,大久保,佐渡島,952-0214
新潟県,佐渡市,猿八,佐渡島,952-0215
新潟県,佐渡市,三宮,佐渡島,952-0216
新潟県,佐渡市,真野大川,佐渡島,952-0301
新潟県,佐渡市,竹田,佐渡島,952-0302
新潟県,佐渡市,阿仏坊,佐渡島,952-0303
新潟県,佐渡市,国分寺,佐渡島,952-0304
新潟県,佐渡市,長石,佐渡島,952-0305
新潟県,佐渡市,四日町,佐渡島,952-0306
新潟県,佐渡市,金丸,佐渡島,952-0307
新潟県,佐渡市,名古屋,佐渡島,952-0311
新潟県,佐渡市,吉岡,佐渡島,952-0312
新潟県,佐渡市,真野,佐渡島,952-0313
新潟県,佐渡市,滝脇,佐渡島,952-0314
新潟県,佐渡市,大須,佐渡島,952-0315
新潟県,佐渡市,背合,佐渡島,952-0316
新潟県,佐渡市,豊田,佐渡島,952-0317
新潟県,佐渡市,真野新町,佐渡島,952-0318
新潟県,佐渡市,静平,佐渡島,952-0321
新潟県,佐渡市,下黒山,佐渡島,952-0322
新潟県,佐渡市,羽茂小泊,佐渡島,952-0421
新潟県,佐渡市,羽茂亀脇,佐渡島,952-0422
新潟県,佐渡市,大小,佐渡島,952-0431
新潟県,佐渡市,大倉谷,佐渡島,952-0432
新潟県,佐渡市,田切須,佐渡島,952-0433
新潟県,佐渡市,西三川,佐渡島,952-0434
新潟県,佐渡市,椿尾,佐渡島,952-0435
新潟県,佐渡市,羽茂滝平,佐渡島,952-0501
新潟県,佐渡市,羽茂大崎,佐渡島,952-0502
新潟県,佐渡市,羽茂飯岡,佐渡島,952-0503
新潟県,佐渡市,羽茂本郷,佐渡島,952-0504
新潟県,佐渡市,羽茂三瀬,佐渡島,952-0505
新潟県,佐渡市,羽茂大石,佐渡島,952-0511
新潟県,佐渡市,羽茂大橋,佐渡島,952-0512
新潟県,佐渡市,羽茂村山,佐渡島,952-0513
新潟県,佐渡市,羽茂小泊,佐渡島,952-0514
新潟県,佐渡市,羽茂上山田,佐渡島,952-0515
新潟県,佐渡市,小木堂釜,佐渡島,952-0601
新潟県,佐渡市,小比叡,佐渡島,952-0602
新潟県,佐渡市,小木木野浦,佐渡島,952-0603
新潟県,佐渡市,小木町,佐渡島,952-0604
新潟県,佐渡市,小木,佐渡島,952-0605
新潟県,佐渡市,琴浦,佐渡島,952-0606
新潟県,佐渡市,小木金田新田,佐渡島,952-0611
新潟県,佐渡市,宿根木,佐渡島,952-0612
新潟県,佐渡市,小木強清水,佐渡島,952-0613
新潟県,佐渡市,犬神平,佐渡島,952-0614
新潟県,佐渡市,深浦,佐渡島,952-0615
新潟県,佐渡市,沢崎,佐渡島,952-0621
新潟県,佐渡市,江積,佐渡島,952-0622
新潟県,佐渡市,田野浦,佐渡島,952-0623
新潟県,佐渡市,木流,佐渡島,952-0624
新潟県,佐渡市,小木大浦,佐渡島,952-0625
新潟県,佐渡市,井坪,佐渡島,952-0626
新潟県,佐渡市,下川茂,佐渡島,952-0701
新潟県,佐渡市,上川茂,佐渡島,952-0702
新潟県,佐渡市,外山,佐渡島,952-0703
新潟県,佐渡市,莚場,佐渡島,952-0704
新潟県,佐渡市,三川,佐渡島,952-0705
新潟県,佐渡市,徳和,佐渡島,952-0706
新潟県,佐渡市,赤泊,佐渡島,952-0711
新潟県,佐渡市,真浦,佐渡島,952-0712
新潟県,佐渡市,柳沢,佐渡島,952-0713
新潟県,佐渡市,南新保,佐渡島,952-0714
新潟県,佐渡市,杉野浦,佐渡島,952-0715
新潟県,佐渡市,大杉,佐渡島,952-0716
新潟県,佐渡市,松ケ崎,佐渡島,952-0821
新潟県,佐渡市,多田,佐渡島,952-0822
新潟県,佐渡市,浜河内,佐渡島,952-0823
新潟県,佐渡市,丸山,佐渡島,952-0824
新潟県,佐渡市,蚫,佐渡島,952-0851
新潟県,佐渡市,赤玉,佐渡島,952-0852
新潟県,佐渡市,立間,佐渡島,952-0853
新潟県,佐渡市,豊岡,佐渡島,952-0854
新潟県,佐渡市,柿野浦,佐渡島,952-0855
新潟県,佐渡市,東鵜島,佐渡島,952-0856
新潟県,佐渡市,岩首,佐渡島,952-0857
新潟県,佐渡市,安養寺,佐渡島,952-1201
新潟県,佐渡市,吉井本郷,佐渡島,952-1202
新潟県,佐渡市,吉井,佐渡島,952-1203
新潟県,佐渡市,三瀬川,佐渡島,952-1204
新潟県,佐渡市,水渡田,佐渡島,952-1205
新潟県,佐渡市,大和,佐渡島,952-1206
新潟県,佐渡市,貝塚,佐渡島,952-1207
新潟県,佐渡市,金井新保,佐渡島,952-1208
新潟県,佐渡市,千種,佐渡島,952-1209
新潟県,佐渡市,中興,佐渡島,952-1211
新潟県,佐渡市,泉,佐渡島,952-1212
新潟県,佐渡市,平清水,佐渡島,952-1213
新潟県,佐渡市,真光寺,佐渡島,952-1301
新潟県,佐渡市,市野沢,佐渡島,952-1302
新潟県,佐渡市,上矢馳,佐渡島,952-1303
新潟県,佐渡市,下長木,佐渡島,952-1304
新潟県,佐渡市,上長木,佐渡島,952-1305
新潟県,佐渡市,長木,佐渡島,952-1306
新潟県,佐渡市,東大通,佐渡島,952-1307
新潟県,佐渡市,二宮,佐渡島,952-1308
新潟県,佐渡市,八幡,佐渡島,952-1311
新潟県,佐渡市,八幡新町,佐渡島,952-1312
新潟県,佐渡市,八幡町,佐渡島,952-1313
新潟県,佐渡市,河原田本町,佐渡島,952-1314
新潟県,佐渡市,河原田諏訪町,佐渡島,952-1315
新潟県,佐渡市,山田,佐渡島,952-1321
新潟県,佐渡市,石田,佐渡島,952-1322
新潟県,佐渡市,鍛冶町,佐渡島,952-1323
新潟県,佐渡市,中原,佐渡島,952-1324
新潟県,佐渡市,窪田,佐渡島,952-1325
新潟県,佐渡市,青野,佐渡島,952-1326
新潟県,佐渡市,沢根炭屋町,佐渡島,952-1431
新潟県,佐渡市,沢根五十里,佐渡島,952-1432
新潟県,佐渡市,沢根篭町,佐渡島,952-1433
新潟県,佐渡市,沢根町,佐渡島,952-1434
新潟県,佐渡市,沢根,佐渡島,952-1435
新潟県,佐渡市,下相川,佐渡島,952-1501
新潟県,佐渡市,相川水金町,佐渡島,952-1502
新潟県,佐渡市,相川柴町,佐渡島,952-1503
新潟県,佐渡市,相川下山之神町,佐渡島,952-1504
新潟県,佐渡市,相川坂下町,佐渡島,952-1505
新潟県,佐渡市,相川炭屋町,佐渡島,952-1506
新潟県,佐渡市,相川紙屋町,佐渡島,952-1507
新潟県,佐渡市,相川大間町,佐渡島,952-1508
新潟県,佐渡市,相川栄町,佐渡島,952-1511
新潟県,佐渡市,相川板町,佐渡島,952-1512
新潟県,佐渡市,相川濁川町,佐渡島,952-1513
新潟県,佐渡市,相川小六町,佐渡島,952-1514
新潟県,佐渡市,相川新西坂町,佐渡島,952-1515
新潟県,佐渡市,相川西坂町,佐渡島,952-1516
新潟県,佐渡市,相川石扣町,佐渡島,952-1517
新潟県,佐渡市,相川材木町,佐渡島,952-1518
新潟県,佐渡市,相川夕白町,佐渡島,952-1521
新潟県,佐渡市,相川上京町,佐渡島,952-1522
新潟県,佐渡市,相川新五郎町,佐渡島,952-1523
新潟県,佐渡市,相川大工町,佐渡島,952-1524
新潟県,佐渡市,相川諏訪町,佐渡島,952-1525
新潟県,佐渡市,相川中寺町,佐渡島,952-1526
新潟県,佐渡市,相川左門町,佐渡島,952-1527
新潟県,佐渡市,相川六右衛門町,佐渡島,952-1528
新潟県,佐渡市,相川広間町,佐渡島,952-1531
新潟県,佐渡市,相川弥十郎町,佐渡島,952-1532
新潟県,佐渡市,相川米屋町,佐渡島,952-1533
新潟県,佐渡市,相川大床屋町,佐渡島,952-1534
新潟県,佐渡市,相川中京町,佐渡島,952-1535
新潟県,佐渡市,相川下京町,佐渡島,952-1536
新潟県,佐渡市,相川会津町,佐渡島,952-1537
新潟県,佐渡市,相川四十物町,佐渡島,952-1538
新潟県,佐渡市,相川北沢町,佐渡島,952-1539
新潟県,佐渡市,相川新材木町,佐渡島,952-1541
新潟県,佐渡市,相川塩屋町,佐渡島,952-1542
新潟県,佐渡市,相川長坂町,佐渡島,952-1543
新潟県,佐渡市,相川味噌屋町,佐渡島,952-1544
新潟県,佐渡市,相川八百屋町,佐渡島,952-1545
新潟県,佐渡市,相川南沢町,佐渡島,952-1546
新潟県,佐渡市,相川江戸沢町,佐渡島,952-1547
新潟県,佐渡市,相川羽田町,佐渡島,952-1548
新潟県,佐渡市,相川下寺町,佐渡島,952-1551
新潟県,佐渡市,相川一町目裏町,佐渡島,952-1552
新潟県,佐渡市,相川五郎左衛門町,佐渡島,952-1553
新潟県,佐渡市,相川二町目新浜町,佐渡島,952-1554
新潟県,佐渡市,相川二町目浜町,佐渡島,952-1555
新潟県,佐渡市,相川一町目浜町,佐渡島,952-1556
新潟県,佐渡市,相川一町目,佐渡島,952-1557
新潟県,佐渡市,相川二町目,佐渡島,952-1558
新潟県,佐渡市,相川三町目新浜町,佐渡島,952-1561
新潟県,佐渡市,相川三町目浜町,佐渡島,952-1562
新潟県,佐渡市,相川三町目,佐渡島,952-1563
新潟県,佐渡市,相川四町目,佐渡島,952-1564
新潟県,佐渡市,相川馬町,佐渡島,952-1565
新潟県,佐渡市,相川市町,佐渡島,952-1566
新潟県,佐渡市,相川四町目浜町,佐渡島,952-1567
新潟県,佐渡市,相川新浜町,佐渡島,952-1568
新潟県,佐渡市,相川下戸浜町,佐渡島,952-1571
新潟県,佐渡市,相川羽田村,佐渡島,952-1572
新潟県,佐渡市,相川下戸炭屋裏町,佐渡島,952-1573
新潟県,佐渡市,相川海士町,佐渡島,952-1574
新潟県,佐渡市,相川下戸町,佐渡島,952-1575
新潟県,佐渡市,相川下戸炭屋町,佐渡島,952-1581
新潟県,佐渡市,相川下戸村,佐渡島,952-1582
新潟県,佐渡市,相川鹿伏,佐渡島,952-1583
新潟県,佐渡市,相川下戸炭屋浜町,佐渡島,952-1584
新潟県,佐渡市,二見,佐渡島,952-1641
新潟県,佐渡市,米郷,佐渡島,952-1642
新潟県,佐渡市,稲鯨,佐渡島,952-1643
新潟県,佐渡市,橘,佐渡島,952-1644
新潟県,佐渡市,高瀬,佐渡島,952-1645
新潟県,佐渡市,相川大浦,佐渡島,952-1646
新潟県,佐渡市,戸中,佐渡島,952-2131
新潟県,佐渡市,戸地,佐渡島,952-2132
新潟県,佐渡市,北狄,佐渡島,952-2133
新潟県,佐渡市,姫津,佐渡島,952-2134
新潟県,佐渡市,達者,佐渡島,952-2135
新潟県,佐渡市,小川,佐渡島,952-2136
新潟県,佐渡市,岩谷口,佐渡島,952-2201
新潟県,佐渡市,五十浦,佐渡島,952-2202
新潟県,佐渡市,関,佐渡島,952-2203
新潟県,佐渡市,矢柄,佐渡島,952-2204
新潟県,佐渡市,大倉,佐渡島,952-2205
新潟県,佐渡市,小田,佐渡島,952-2206
新潟県,佐渡市,石名,佐渡島,952-2211
新潟県,佐渡市,小野見,佐渡島,952-2212
新潟県,佐渡市,北田野浦,佐渡島,952-2213
新潟県,佐渡市,高千,佐渡島,952-2214
新潟県,佐渡市,入川,佐渡島,952-2215
新潟県,佐渡市,北立島,佐渡島,952-2221
新潟県,佐渡市,北川内,佐渡島,952-2222
新潟県,佐渡市,後尾,佐渡島,952-2223
新潟県,佐渡市,石花,佐渡島,952-2224
新潟県,佐渡市,北片辺,佐渡島,952-2225
新潟県,佐渡市,南片辺,佐渡島,952-2226
新潟県,佐渡市,虫崎,佐渡島,952-3111
新潟県,佐渡市,黒姫,佐渡島,952-3112
新潟県,佐渡市,歌見,佐渡島,952-3113
新潟県,佐渡市,浦川,佐渡島,952-3114
新潟県,佐渡市,平松,佐渡島,952-3115
新潟県,佐渡市,北松ケ崎,佐渡島,952-3116
新潟県,佐渡市,馬首,佐渡島,952-3117
新潟県,佐渡市,和木,佐渡島,952-3118
新潟県,佐渡市,玉崎,佐渡島,952-3119
新潟県,佐渡市,真更川,佐渡島,952-3201
新潟県,佐渡市,北鵜島,佐渡島,952-3202
新潟県,佐渡市,願,佐渡島,952-3203
新潟県,佐渡市,藻浦,佐渡島,952-3204
新潟県,佐渡市,鷲崎,佐渡島,952-3205
新潟県,佐渡市,見立,佐渡島,952-3206
新潟県,佐渡市,北小浦,佐渡島,952-3207
新潟県,佐渡市,吾潟,佐渡島,952-3421
新潟県,佐渡市,城腰,佐渡島,952-3422
新潟県,佐渡市,久知河内,佐渡島,952-3423
新潟県,佐渡市,下久知,佐渡島,952-3424
新潟県,佐渡市,河崎,佐渡島,952-3425
新潟県,佐渡市,真木,佐渡島,952-3431
新潟県,佐渡市,椎泊,佐渡島,952-3432
新潟県,佐渡市,両尾,佐渡島,952-3433
新潟県,佐渡市,羽二生,佐渡島,952-3434
新潟県,佐渡市,両津大川,佐渡島,952-3435
新潟県,佐渡市,水津,佐渡島,952-3541
新潟県,佐渡市,片野尾,佐渡島,952-3542
新潟県,佐渡市,月布施,佐渡島,952-3543
新潟県,佐渡市,野浦,佐渡島,952-3544
新潟県,佐渡市,東強清水,佐渡島,952-3545
新潟県,佐渡市,東立島,佐渡島,952-3546
新潟県,東蒲原郡阿賀町,向鹿瀬,　,959-4301
新潟県,東蒲原郡阿賀町,鹿瀬,　,959-4302
新潟県,東蒲原郡阿賀町,日出谷,　,959-4303
新潟県,東蒲原郡阿賀町,豊実,　,959-4304
新潟県,東蒲原郡阿賀町,角島,　,959-4401
新潟県,東蒲原郡阿賀町,津川,　,959-4402
新潟県,東蒲原郡阿賀町,平堀,　,959-4403
新潟県,東蒲原郡阿賀町,広沢,　,959-4404
新潟県,東蒲原郡阿賀町,上ノ山,　,959-4405
新潟県,東蒲原郡阿賀町,雲和田,　,959-4406
新潟県,東蒲原郡阿賀町,西,　,959-4407
新潟県,東蒲原郡阿賀町,赤岩,　,959-4408
新潟県,東蒲原郡阿賀町,京ノ瀬,　,959-4409
新潟県,東蒲原郡阿賀町,大牧,　,959-4410
新潟県,東蒲原郡阿賀町,天満,　,959-4411
新潟県,東蒲原郡阿賀町,花立,　,959-4412
新潟県,東蒲原郡阿賀町,倉ノ平,　,959-4413
新潟県,東蒲原郡阿賀町,福取,　,959-4414
新潟県,東蒲原郡阿賀町,八ツ田,　,959-4415
新潟県,東蒲原郡阿賀町,田沢,　,959-4416
新潟県,東蒲原郡阿賀町,八木山,　,959-4417
新潟県,東蒲原郡阿賀町,野村,　,959-4418
新潟県,東蒲原郡阿賀町,払川,　,959-4441
新潟県,東蒲原郡阿賀町,九島,　,959-4501
新潟県,東蒲原郡阿賀町,小出,　,959-4502
新潟県,東蒲原郡阿賀町,豊川乙,　,959-4503
新潟県,東蒲原郡阿賀町,豊川丙,　,959-4504
新潟県,東蒲原郡阿賀町,豊川甲,　,959-4505
新潟県,東蒲原郡阿賀町,両郷乙,　,959-4506
新潟県,東蒲原郡阿賀町,両郷甲,　,959-4507
新潟県,東蒲原郡阿賀町,東山,　,959-4511
新潟県,東蒲原郡阿賀町,大倉乙,　,959-4512
新潟県,東蒲原郡阿賀町,大倉甲,　,959-4513
新潟県,東蒲原郡阿賀町,七名乙,　,959-4514
新潟県,東蒲原郡阿賀町,七名甲,　,959-4515
新潟県,東蒲原郡阿賀町,三宝分甲,　,959-4521
新潟県,東蒲原郡阿賀町,三宝分乙,　,959-4522
新潟県,東蒲原郡阿賀町,三宝分丙,　,959-4523
新潟県,東蒲原郡阿賀町,三方乙,　,959-4524
新潟県,東蒲原郡阿賀町,小手茂,　,959-4525
新潟県,東蒲原郡阿賀町,三方甲,　,959-4526
新潟県,東蒲原郡阿賀町,日野川甲,　,959-4531
新潟県,東蒲原郡阿賀町,広谷丙,　,959-4532
新潟県,東蒲原郡阿賀町,神谷丙,　,959-4533
新潟県,東蒲原郡阿賀町,神谷乙,　,959-4534
新潟県,東蒲原郡阿賀町,神谷甲,　,959-4535
新潟県,東蒲原郡阿賀町,広谷甲,　,959-4536
新潟県,東蒲原郡阿賀町,広谷乙,　,959-4537
新潟県,東蒲原郡阿賀町,日野川丙,　,959-4538
新潟県,東蒲原郡阿賀町,日野川乙,　,959-4539
新潟県,東蒲原郡阿賀町,綱木,　,959-4601
新潟県,東蒲原郡阿賀町,古岐,　,959-4602
新潟県,東蒲原郡阿賀町,新谷,　,959-4603
新潟県,東蒲原郡阿賀町,行地,　,959-4604
新潟県,東蒲原郡阿賀町,細越,　,959-4605
新潟県,東蒲原郡阿賀町,五十沢,　,959-4606
新潟県,東蒲原郡阿賀町,小花地,　,959-4608
新潟県,東蒲原郡阿賀町,中ノ沢,　,959-4611
新潟県,東蒲原郡阿賀町,岡沢,　,959-4612
新潟県,東蒲原郡阿賀町,五十島,　,959-4614
新潟県,岩船郡粟島浦村,　　,　,958-0061
石川県,輪島市,海士町,舳倉島,928-0072
静岡県,熱海市,初島,　,413-0004
愛知県,知多郡南知多町,日間賀島,　,470-3504
愛知県,知多郡南知多町,篠島,　,470-3505
愛知県,幡豆郡一色町,佐久島,佐久島,444-0416
三重県,鳥羽市,神島町,　,517-0001
三重県,鳥羽市,答志町,　,517-0002
三重県,鳥羽市,桃取町,　,517-0003
三重県,鳥羽市,菅島町,　,517-0004
三重県,鳥羽市,坂手町,　,517-0005
三重県,志摩市,磯部町渡鹿野,　,517-0205
三重県,志摩市,志摩町和具,　,517-0703
滋賀県,近江八幡市,沖島町,　,523-0801
兵庫県,姫路市,家島町真浦,　,672-0101
兵庫県,姫路市,家島町宮,　,672-0102
兵庫県,姫路市,家島町坊勢,　,672-0103
兵庫県,南あわじ市,沼島,　,656-0961
島根県,隠岐郡海士町,宇受賀,隠岐諸島,684-0401
島根県,隠岐郡海士町,豊田,隠岐諸島,684-0402
島根県,隠岐郡海士町,海士,隠岐諸島,684-0403
島根県,隠岐郡海士町,福井,隠岐諸島,684-0404
島根県,隠岐郡海士町,知々井,隠岐諸島,684-0411
島根県,隠岐郡海士町,御波,隠岐諸島,684-0412
島根県,隠岐郡海士町,崎,隠岐諸島,684-0413
島根県,隠岐郡西ノ島町,浦郷,隠岐諸島,684-0211
島根県,隠岐郡西ノ島町,宇賀,隠岐諸島,684-0301
島根県,隠岐郡西ノ島町,別府,隠岐諸島,684-0302
島根県,隠岐郡西ノ島町,美田,隠岐諸島,684-0303
島根県,隠岐郡知夫村,大江,隠岐諸島,684-0101
島根県,隠岐郡知夫村,郡,隠岐諸島,684-0102
島根県,隠岐郡知夫村,多沢,隠岐諸島,684-0103
島根県,隠岐郡知夫村,薄毛,隠岐諸島,684-0104
島根県,隠岐郡知夫村,仁夫,隠岐諸島,684-0105
島根県,隠岐郡知夫村,来居,隠岐諸島,684-0106
島根県,隠岐郡知夫村,古海,隠岐諸島,684-0107
島根県,隠岐郡隠岐の島町,大久,隠岐諸島,685-0001
島根県,隠岐郡隠岐の島町,釜,隠岐諸島,685-0002
島根県,隠岐郡隠岐の島町,犬来,隠岐諸島,685-0003
島根県,隠岐郡隠岐の島町,飯田,隠岐諸島,685-0004
島根県,隠岐郡隠岐の島町,東郷,隠岐諸島,685-0005
島根県,隠岐郡隠岐の島町,有木,隠岐諸島,685-0006
島根県,隠岐郡隠岐の島町,池田,隠岐諸島,685-0007
島根県,隠岐郡隠岐の島町,栄町,隠岐諸島,685-0011
島根県,隠岐郡隠岐の島町,東町,隠岐諸島,685-0012
島根県,隠岐郡隠岐の島町,中町,隠岐諸島,685-0013
島根県,隠岐郡隠岐の島町,西町,隠岐諸島,685-0014
島根県,隠岐郡隠岐の島町,港町,隠岐諸島,685-0015
島根県,隠岐郡隠岐の島町,城北町,隠岐諸島,685-0016
島根県,隠岐郡隠岐の島町,下西,隠岐諸島,685-0017
島根県,隠岐郡隠岐の島町,岬町,隠岐諸島,685-0021
島根県,隠岐郡隠岐の島町,今津,隠岐諸島,685-0022
島根県,隠岐郡隠岐の島町,西田,隠岐諸島,685-0023
島根県,隠岐郡隠岐の島町,加茂,隠岐諸島,685-0024
島根県,隠岐郡隠岐の島町,平,隠岐諸島,685-0025
島根県,隠岐郡隠岐の島町,上西,隠岐諸島,685-0026
島根県,隠岐郡隠岐の島町,原田,隠岐諸島,685-0027
島根県,隠岐郡隠岐の島町,蔵田,隠岐諸島,685-0101
島根県,隠岐郡隠岐の島町,油井,隠岐諸島,685-0102
島根県,隠岐郡隠岐の島町,那久,隠岐諸島,685-0103
島根県,隠岐郡隠岐の島町,都万,隠岐諸島,685-0104
島根県,隠岐郡隠岐の島町,津戸,隠岐諸島,685-0105
島根県,隠岐郡隠岐の島町,蛸木,隠岐諸島,685-0106
島根県,隠岐郡隠岐の島町,北方,隠岐諸島,685-0301
島根県,隠岐郡隠岐の島町,苗代田,隠岐諸島,685-0302
島根県,隠岐郡隠岐の島町,南方,隠岐諸島,685-0303
島根県,隠岐郡隠岐の島町,代,隠岐諸島,685-0304
島根県,隠岐郡隠岐の島町,久見,隠岐諸島,685-0305
島根県,隠岐郡隠岐の島町,伊後,隠岐ノ島,685-0306
島根県,隠岐郡隠岐の島町,郡,隠岐諸島,685-0311
島根県,隠岐郡隠岐の島町,小路,隠岐諸島,685-0312
島根県,隠岐郡隠岐の島町,那久路,隠岐諸島,685-0313
島根県,隠岐郡隠岐の島町,山田,隠岐諸島,685-0314
島根県,隠岐郡隠岐の島町,飯美,隠岐諸島,685-0411
島根県,隠岐郡隠岐の島町,布施,隠岐諸島,685-0412
島根県,隠岐郡隠岐の島町,卯敷,隠岐諸島,685-0413
島根県,隠岐郡隠岐の島町,伊後,隠岐諸島,685-0431
島根県,隠岐郡隠岐の島町,西村,隠岐諸島,685-0432
島根県,隠岐郡隠岐の島町,湊,隠岐諸島,685-0433
島根県,隠岐郡隠岐の島町,中村,隠岐諸島,685-0434
島根県,隠岐郡隠岐の島町,元屋,隠岐諸島,685-0435
岡山県,岡山市,犬島,イヌジマ,704-8153
岡山県,玉野市,石島,イシマ,706-0306
岡山県,笠岡市,高島,　,714-0035
岡山県,笠岡市,白石島,　,714-0036
岡山県,笠岡市,真鍋島,　,714-0037
岡山県,笠岡市,六島,　,714-0038
岡山県,笠岡市,北木島町,　,714-0301
岡山県,笠岡市,飛島,　,714-0302
岡山県,備前市,日生町大多府,大多府島,701-3203
岡山県,瀬戸内市,牛窓町牛窓,特記,701-4302
広島県,広島市南区,似島町,似島,734-0017
広島県,呉市,豊浜町豊島,豊島,734-0101
広島県,呉市,豊浜町大浜,大崎下島,734-0102
広島県,呉市,豊浜町斎島,斎島,734-0103
広島県,呉市,豊町大長,大崎下島,734-0301
広島県,呉市,豊町御手洗,大崎下島,734-0302
広島県,呉市,豊町沖友,大崎下島,734-0303
広島県,呉市,豊町久比,大崎下島,734-0304
広島県,三原市,鷺浦町須波,鷺島,723-0021
広島県,三原市,鷺浦町向田野浦,鷺島,723-0022
広島県,尾道市,百島町,百島,722-0061
広島県,尾道市,瀬戸田町御寺,瀬戸田,722-2401
広島県,尾道市,瀬戸田町宮原,瀬戸田,722-2402
広島県,尾道市,瀬戸田町荻,瀬戸田,722-2403
広島県,尾道市,瀬戸田町垂水,瀬戸田,722-2404
広島県,尾道市,瀬戸田町福田,瀬戸田,722-2405
広島県,尾道市,瀬戸田町瀬戸田,瀬戸田,722-2411
広島県,尾道市,瀬戸田町高根,瀬戸田,722-2412
広島県,尾道市,瀬戸田町沢,瀬戸田,722-2413
広島県,尾道市,瀬戸田町鹿田原,瀬戸田,722-2414
広島県,尾道市,瀬戸田町中野,瀬戸田,722-2415
広島県,尾道市,瀬戸田町林,瀬戸田,722-2416
広島県,尾道市,瀬戸田町名荷,瀬戸田,722-2417
広島県,尾道市,因島洲江町,因島,722-2431
広島県,尾道市,因島原町,因島,722-2432
広島県,福山市,走島町,走島,720-0204
広島県,大竹市,阿多田,阿多田島,739-0607
広島県,廿日市市,宮島町,宮島,739-0501
広島県,廿日市市,宮島町,宮島,739-0502
広島県,廿日市市,宮島町,宮島,739-0503
広島県,廿日市市,宮島町,宮島,739-0504
広島県,廿日市市,宮島町,宮島,739-0505
広島県,廿日市市,宮島町,宮島,739-0506
広島県,廿日市市,宮島町,宮島,739-0507
広島県,廿日市市,宮島町,宮島,739-0511
広島県,廿日市市,宮島町,宮島,739-0512
広島県,廿日市市,宮島町,宮島,739-0513
広島県,廿日市市,宮島町,宮島,739-0514
広島県,廿日市市,宮島町,宮島,739-0515
広島県,廿日市市,宮島町,宮島,739-0516
広島県,廿日市市,宮島町,宮島,739-0517
広島県,廿日市市,宮島町,宮島,739-0518
広島県,廿日市市,宮島町,宮島,739-0521
広島県,廿日市市,宮島町,宮島,739-0522
広島県,廿日市市,宮島町,宮島,739-0523
広島県,廿日市市,宮島町,宮島,739-0524
広島県,廿日市市,宮島町,宮島,739-0525
広島県,廿日市市,宮島町,宮島,739-0531
広島県,廿日市市,宮島町,宮島,739-0532
広島県,廿日市市,宮島町,宮島,739-0533
広島県,廿日市市,宮島町,宮島,739-0534
広島県,廿日市市,宮島町,宮島,739-0535
広島県,廿日市市,宮島町,宮島,739-0536
広島県,廿日市市,宮島町,宮島,739-0541
広島県,廿日市市,宮島町,宮島,739-0542
広島県,廿日市市,宮島町,宮島,739-0543
広島県,廿日市市,宮島町,宮島,739-0550
広島県,廿日市市,宮島町,宮島,739-0551
広島県,廿日市市,宮島町,宮島,739-0552
広島県,廿日市市,宮島町,宮島,739-0553
広島県,廿日市市,宮島町,宮島,739-0554
広島県,廿日市市,宮島町,宮島,739-0555
広島県,廿日市市,宮島町,宮島,739-0556
広島県,廿日市市,宮島町,宮島,739-0557
広島県,廿日市市,宮島町,宮島,739-0558
広島県,廿日市市,宮島町,宮島,739-0559
広島県,廿日市市,宮島町,厳島（宮島）,739-0588
広島県,豊田郡大崎上島町,東野,大崎上島,725-0231
広島県,豊田郡大崎上島町,中野,大崎上島,725-0301
広島県,豊田郡大崎上島町,原田,大崎上島,725-0302
広島県,豊田郡大崎上島町,大串,大崎上島,725-0303
広島県,豊田郡大崎上島町,木江,大崎上島,725-0401
広島県,豊田郡大崎上島町,沖浦,大崎上島,725-0402
広島県,豊田郡大崎上島町,明石,大崎上島,725-0403
山口県,下関市,六連島,六連島,750-0095
山口県,下関市,蓋井島,蓋井島,759-6542
山口県,萩市,相島,相島,758-0001
山口県,萩市,大島,大島,758-0003
山口県,萩市,見島,見島,758-0701
山口県,防府市,野島,野島,747-0832
山口県,岩国市,柱島,柱島,740-0051
山口県,光市,牛島,牛島,743-0003
山口県,柳井市,平郡,平郡,742-0041
山口県,周南市,大津島,大津島,745-0057
山口県,大島郡周防大島町,笠佐島,笠佐島,742-2108
山口県,大島郡周防大島町,浮島,浮島,742-2801
山口県,熊毛郡上関町,祝島,祝島,742-1401
山口県,熊毛郡上関町,八島,八島,742-1404
山口県,熊毛郡田布施町,馬島,馬島,742-1516
山口県,熊毛郡平生町,佐合島,佐合島,742-1114
徳島県,阿南市,伊島町,伊島,774-1760
徳島県,海部郡牟岐町,牟岐浦,出羽島,775-0010
徳島県,海部郡牟岐町,牟岐浦,　,775-0013
香川県,高松市,男木町,男木島,760-0091
香川県,高松市,女木町,女木島,760-0092
香川県,丸亀市,広島町立石,広島,763-0101
香川県,丸亀市,広島町江の浦,広島,763-0102
香川県,丸亀市,広島町釜の越,広島,763-0103
香川県,丸亀市,広島町甲路,広島,763-0104
香川県,丸亀市,広島町青木,広島,763-0105
香川県,丸亀市,広島町市井,広島,763-0106
香川県,丸亀市,広島町茂浦,広島,763-0107
香川県,丸亀市,広島町小手島,広島,763-0108
香川県,丸亀市,手島町,手島,763-0111
香川県,丸亀市,本島町笠島,本島,763-0221
香川県,丸亀市,本島町甲生,本島,763-0222
香川県,丸亀市,本島町泊,本島,763-0223
香川県,丸亀市,本島町小阪,本島,763-0224
香川県,丸亀市,本島町生の浜,本島,763-0225
香川県,丸亀市,本島町尻浜,本島,763-0226
香川県,丸亀市,本島町福田,本島,763-0227
香川県,丸亀市,本島町大浦,本島,763-0228
香川県,丸亀市,牛島,牛島,763-0231
香川県,坂出市,与島町,　,762-0071
香川県,坂出市,岩黒,　,762-0072
香川県,坂出市,櫃石,　,762-0073
香川県,観音寺市,伊吹町,伊吹島,768-0071
香川県,三豊市,詫間町粟島,粟島,769-1108
香川県,三豊市,詫間町志々島,志々島,769-1109
香川県,小豆郡土庄町,甲、乙,小豆島,761-4101
香川県,小豆郡土庄町,甲、乙,小豆島,761-4102
香川県,小豆郡土庄町,甲、乙,小豆島,761-4103
香川県,小豆郡土庄町,甲、乙,小豆島,761-4104
香川県,小豆郡土庄町,甲、乙,小豆島,761-4105
香川県,小豆郡土庄町,甲、乙,小豆島,761-4106
香川県,小豆郡土庄町,甲、乙,小豆島,761-4111
香川県,小豆郡土庄町,甲、乙,小豆島,761-4112
香川県,小豆郡土庄町,甲、乙,小豆島,761-4113
香川県,小豆郡土庄町,甲、乙,小豆島,761-4114
香川県,小豆郡土庄町,甲、乙,小豆島,761-4115
香川県,小豆郡土庄町,渕崎,小豆島,761-4121
香川県,小豆郡土庄町,上庄,小豆島,761-4122
香川県,小豆郡土庄町,伊喜末,小豆島,761-4131
香川県,小豆郡土庄町,小江,小豆島,761-4132
香川県,小豆郡土庄町,長浜,小豆島,761-4133
香川県,小豆郡土庄町,滝宮,小豆島,761-4134
香川県,小豆郡土庄町,馬越,小豆島,761-4141
香川県,小豆郡土庄町,屋形崎,小豆島,761-4142
香川県,小豆郡土庄町,見目,小豆島,761-4143
香川県,小豆郡土庄町,小海,小豆島,761-4144
香川県,小豆郡土庄町,大部,小豆島,761-4145
香川県,小豆郡土庄町,小部,小豆島,761-4146
香川県,小豆郡土庄町,肥土山,小豆島,761-4151
香川県,小豆郡土庄町,黒岩,小豆島,761-4152
香川県,小豆郡土庄町,小馬越,小豆島,761-4153
香川県,小豆郡土庄町,笠滝,小豆島,761-4154
香川県,小豆郡土庄町,豊島家浦,小豆島,761-4661
香川県,小豆郡土庄町,豊島唐櫃,小豆島,761-4662
香川県,小豆郡土庄町,豊島甲生,小豆島,761-4663
香川県,小豆郡土庄町,伊喜末,小豆島,761-4664
香川県,小豆郡小豆島町,中山,小豆島,761-4155
香川県,小豆郡小豆島町,池田,小豆島,761-4301
香川県,小豆郡小豆島町,蒲生,小豆島,761-4302
香川県,小豆郡小豆島町,中山,小豆島,761-4303
香川県,小豆郡小豆島町,室生,小豆島,761-4304
香川県,小豆郡小豆島町,二面,小豆島,761-4305
香川県,小豆郡小豆島町,吉野,小豆島,761-4306
香川県,小豆郡小豆島町,蒲野,小豆島,761-4307
香川県,小豆郡小豆島町,神浦,小豆島,761-4308
香川県,小豆郡小豆島町,吉田,小豆島,761-4401
香川県,小豆郡小豆島町,福田,小豆島,761-4402
香川県,小豆郡小豆島町,当浜,小豆島,761-4403
香川県,小豆郡小豆島町,岩谷,小豆島,761-4404
香川県,小豆郡小豆島町,橘,小豆島,761-4405
香川県,小豆郡小豆島町,安田,小豆島,761-4411
香川県,小豆郡小豆島町,木庄,小豆島,761-4412
香川県,小豆郡小豆島町,苗羽,小豆島,761-4421
香川県,小豆郡小豆島町,古江,小豆島,761-4422
香川県,小豆郡小豆島町,堀越,小豆島,761-4423
香川県,小豆郡小豆島町,田浦,小豆島,761-4424
香川県,小豆郡小豆島町,坂手,小豆島,761-4425
香川県,小豆郡小豆島町,馬木,小豆島,761-4426
香川県,小豆郡小豆島町,片城,小豆島,761-4431
香川県,小豆郡小豆島町,草壁本町,小豆島,761-4432
香川県,小豆郡小豆島町,神懸通,小豆島,761-4433
香川県,小豆郡小豆島町,西村,小豆島,761-4434
香川県,香川郡直島町,　,直島,761-3110
香川県,仲多度郡多度津町,佐柳,　,764-0040
香川県,仲多度郡多度津町,高見,　,764-0050
愛媛県,松山市,元怒和,怒和島,791-4321
愛媛県,松山市,上怒和,怒和島,791-4322
愛媛県,松山市,二神,二神島,791-4323
愛媛県,松山市,津和地,津和地島,791-4324
愛媛県,松山市,睦月,睦月島,791-4431
愛媛県,松山市,野忽那,野忽那島,791-4432
愛媛県,松山市,中島大浦,中島,791-4501
愛媛県,松山市,小浜,中島,791-4502
愛媛県,松山市,長師,中島,791-4503
愛媛県,松山市,宮野,中島,791-4504
愛媛県,松山市,神浦,中島,791-4505
愛媛県,松山市,宇和間,中島,791-4506
愛媛県,松山市,熊田,中島,791-4507
愛媛県,松山市,吉木,中島,791-4508
愛媛県,松山市,饒,中島,791-4509
愛媛県,松山市,畑里,中島,791-4510
愛媛県,松山市,中島粟井,中島,791-4511
愛媛県,松山市,門田町,興居島,791-8091
愛媛県,松山市,由良町,興居島,791-8092
愛媛県,松山市,泊町,興居島,791-8093
愛媛県,松山市,安居島,安居島,799-2433
愛媛県,今治市,宮窪町四阪島,大島,792-0080
愛媛県,今治市,関前岡村,関前,794-1101
愛媛県,今治市,関前小大下,関前,794-1102
愛媛県,今治市,関前大下,関前,794-1103
愛媛県,今治市,大三島町肥海,大三島,794-1301
愛媛県,今治市,大三島町大見,大三島,794-1302
愛媛県,今治市,大三島町明日,大三島,794-1303
愛媛県,今治市,大三島町宮浦,大三島,794-1304
愛媛県,今治市,大三島町台,大三島,794-1305
愛媛県,今治市,大三島町野々江,大三島,794-1306
愛媛県,今治市,大三島町口総,大三島,794-1307
愛媛県,今治市,大三島町浦戸,大三島,794-1308
愛媛県,今治市,大三島町宗方,大三島,794-1309
愛媛県,今治市,上浦町盛,大三島,794-1401
愛媛県,今治市,上浦町井口,大三島,794-1402
愛媛県,今治市,上浦町甘崎,大三島,794-1403
愛媛県,今治市,上浦町瀬戸,大三島,794-1404
愛媛県,今治市,吉海町田浦,大島,794-2101
愛媛県,今治市,吉海町泊,大島,794-2102
愛媛県,今治市,吉海町福田,大島,794-2103
愛媛県,今治市,吉海町仁江,大島,794-2104
愛媛県,今治市,吉海町八幡,大島,794-2110
愛媛県,今治市,吉海町幸新田,大島,794-2111
愛媛県,今治市,吉海町本庄,大島,794-2112
愛媛県,今治市,吉海町椋名,大島,794-2113
愛媛県,今治市,吉海町名,大島,794-2114
愛媛県,今治市,吉海町南浦,大島,794-2115
愛媛県,今治市,吉海町名駒,大島,794-2116
愛媛県,今治市,吉海町正味,大島,794-2117
愛媛県,今治市,吉海町臥間,大島,794-2118
愛媛県,今治市,吉海町津島,大島,794-2119
愛媛県,今治市,宮窪町早川,大島,794-2201
愛媛県,今治市,宮窪町余所国,大島,794-2202
愛媛県,今治市,宮窪町宮窪,大島,794-2203
愛媛県,今治市,宮窪町友浦,大島,794-2204
愛媛県,今治市,伯方町有津,伯方島,794-2301
愛媛県,今治市,伯方町叶浦,伯方島,794-2302
愛媛県,今治市,伯方町伊方,伯方島,794-2303
愛媛県,今治市,伯方町北浦,伯方島,794-2304
愛媛県,今治市,伯方町木浦,伯方島,794-2305
愛媛県,今治市,来島,来島,799-2121
愛媛県,今治市,来島,来島,799-2122
愛媛県,今治市,馬島,馬島,799-2123
愛媛県,宇和島市,本九島,九島,798-0096
愛媛県,宇和島市,百之浦,九島,798-0097
愛媛県,宇和島市,蛤,九島,798-0098
愛媛県,宇和島市,日振島,日振島,798-0099
愛媛県,宇和島市,戸島,戸島,798-0212
愛媛県,宇和島市,津島町竹ケ島,竹ケ島,798-3358
愛媛県,八幡浜市,大島,大島,796-8060
愛媛県,新居浜市,大島,大島,792-0891
愛媛県,大洲市,長浜町青島,青島,799-3470
愛媛県,越智郡上島町,岩城,岩城島,794-2410
愛媛県,越智郡上島町,弓削久司浦,弓削島,794-2501
愛媛県,越智郡上島町,弓削沢津,弓削島,794-2502
愛媛県,越智郡上島町,弓削上弓削,弓削島,794-2503
愛媛県,越智郡上島町,弓削百貫,弓削島,794-2503
愛媛県,越智郡上島町,弓削引野,弓削島,794-2504
愛媛県,越智郡上島町,弓削明神,弓削島,794-2505
愛媛県,越智郡上島町,弓削下弓削,弓削島,794-2506
愛媛県,越智郡上島町,弓削藤谷,弓削島,794-2507
愛媛県,越智郡上島町,弓削太田,弓削島,794-2508
愛媛県,越智郡上島町,弓削土生,弓削島,794-2509
愛媛県,越智郡上島町,弓削鎌田,弓削島,794-2510
愛媛県,越智郡上島町,弓削日比,弓削島,794-2511
愛媛県,越智郡上島町,弓削狩尾,弓削島,794-2512
愛媛県,越智郡上島町,弓削大谷,弓削島,794-2513
愛媛県,越智郡上島町,弓削佐島,弓削島,794-2520
愛媛県,越智郡上島町,弓削豊島,弓削島,794-2530
愛媛県,越智郡上島町,魚島一番耕地,魚島,794-2540
愛媛県,越智郡上島町,魚島二番耕地,魚島,794-2541
愛媛県,越智郡上島町,魚島三番耕地,魚島,794-2542
愛媛県,越智郡上島町,生名,生名島,794-2550
愛媛県,上浮穴郡久万高原町,久万,　,791-1201
愛媛県,上浮穴郡久万高原町,入野,　,791-1202
愛媛県,上浮穴郡久万高原町,西明神,　,791-1203
愛媛県,上浮穴郡久万高原町,東明神,　,791-1204
愛媛県,上浮穴郡久万高原町,菅生,　,791-1205
愛媛県,上浮穴郡久万高原町,上野尻,　,791-1206
愛媛県,上浮穴郡久万高原町,下野尻,　,791-1207
愛媛県,上浮穴郡久万高原町,上畑野川,　,791-1211
愛媛県,上浮穴郡久万高原町,下畑野川,　,791-1212
愛媛県,上浮穴郡久万高原町,直瀬,　,791-1213
愛媛県,上浮穴郡久万高原町,露峰,　,791-1221
愛媛県,上浮穴郡久万高原町,二名,　,791-1222
愛媛県,上浮穴郡久万高原町,父野川,　,791-1223
愛媛県,上浮穴郡久万高原町,上黒岩,　,791-1501
愛媛県,上浮穴郡久万高原町,中黒岩,　,791-1502
愛媛県,上浮穴郡久万高原町,日野浦,　,791-1503
愛媛県,上浮穴郡久万高原町,大川,　,791-1504
愛媛県,上浮穴郡久万高原町,有枝,　,791-1505
愛媛県,上浮穴郡久万高原町,七鳥,　,791-1511
愛媛県,上浮穴郡久万高原町,東川,　,791-1512
愛媛県,上浮穴郡久万高原町,仕出,　,791-1513
愛媛県,上浮穴郡久万高原町,沢渡,　,791-1514
愛媛県,上浮穴郡久万高原町,黒藤川,　,791-1515
愛媛県,上浮穴郡久万高原町,渋草,　,791-1701
愛媛県,上浮穴郡久万高原町,大成,　,791-1702
愛媛県,上浮穴郡久万高原町,笠方,　,791-1703
愛媛県,上浮穴郡久万高原町,前組,　,791-1704
愛媛県,上浮穴郡久万高原町,相の峰,　,791-1705
愛媛県,上浮穴郡久万高原町,本組,　,791-1706
愛媛県,上浮穴郡久万高原町,中組,　,791-1707
愛媛県,上浮穴郡久万高原町,河の子,　,791-1708
愛媛県,上浮穴郡久万高原町,相の木,　,791-1709
愛媛県,上浮穴郡久万高原町,若山,　,791-1710
愛媛県,上浮穴郡久万高原町,柳井川,　,791-1801
愛媛県,上浮穴郡久万高原町,西谷,　,791-1802
愛媛県,上浮穴郡久万高原町,中津,　,791-1803
愛媛県,伊予郡砥部町,川登,　,791-2143
愛媛県,伊予郡砥部町,万年,　,791-2144
愛媛県,伊予郡砥部町,大平,　,791-2145
愛媛県,伊予郡砥部町,満穂,　,791-2201
愛媛県,伊予郡砥部町,玉谷,　,791-2202
愛媛県,伊予郡砥部町,中野川,　,791-2203
愛媛県,伊予郡砥部町,高市,　,791-2204
愛媛県,伊予郡砥部町,総津,　,791-2205
愛媛県,伊予郡砥部町,多居谷,　,791-2206
愛媛県,伊予郡砥部町,仙波,　,791-2207
高知県,宿毛市,沖の島町母島,沖の島,788-0677
高知県,宿毛市,沖の島町弘瀬,沖の島,788-0678
高知県,宿毛市,沖の島町鵜来島,鵜来島,788-0679
佐賀県,唐津市,神集島,神集島,847-0131
佐賀県,唐津市,呼子町小川島,小川島,847-0306
佐賀県,唐津市,鎮西町加唐島,加唐島,847-0317
佐賀県,唐津市,鎮西町馬渡島,馬渡島,847-0405
佐賀県,唐津市,鎮西町松島,松島,847-0406
佐賀県,唐津市,肥前町向島,向島,847-1524
長崎県,長崎市,伊王島町,　,851-1201
長崎県,長崎市,高島町,　,851-1315
長崎県,長崎市,池島町,池島,857-0071
長崎県,佐世保市,黒島町,黒島,857-3271
長崎県,佐世保市,宇久町神浦,宇久島,857-4811
長崎県,佐世保市,宇久町小浜,宇久島,857-4812
長崎県,佐世保市,宇久町飯良,宇久島,857-4813
長崎県,佐世保市,宇久町本飯良,宇久島,857-4814
長崎県,佐世保市,宇久町大久保,宇久島,857-4815
長崎県,佐世保市,宇久町寺島,宇久島,857-4816
長崎県,佐世保市,宇久町平,宇久島,857-4901
長崎県,佐世保市,宇久町野方,宇久島,857-4902
長崎県,佐世保市,宇久町太田江,宇久島,857-4903
長崎県,佐世保市,宇久町木場,宇久島,857-4904
長崎県,平戸市,度島町,度島,859-5101
長崎県,平戸市,大島村神浦,大島,859-5801
長崎県,平戸市,大島村前平,大島,859-5802
長崎県,平戸市,大島村西宇戸,大島,859-5803
長崎県,平戸市,大島村大根坂,大島,859-5804
長崎県,平戸市,大島村的山川内,大島,859-5805
長崎県,平戸市,大島村的山戸田,大島,859-5806
長崎県,松浦市,鷹島町阿翁浦免,鷹島,859-4301
長崎県,松浦市,鷹島町阿翁免,鷹島,859-4302
長崎県,松浦市,鷹島町神崎免,鷹島,859-4303
長崎県,松浦市,鷹島町里免,鷹島,859-4304
長崎県,松浦市,鷹島町中通免,鷹島,859-4305
長崎県,松浦市,鷹島町原免,鷹島,859-4306
長崎県,松浦市,鷹島町三里免,鷹島,859-4307
長崎県,松浦市,鷹島町船唐津免,鷹島,859-4308
長崎県,松浦市,鷹島町黒島免,鷹島,859-4309
長崎県,松浦市,今福町飛島免,飛島,859-4529
長崎県,松浦市,星鹿町青島免,青島,859-4745
長崎県,対馬市,厳原町小浦,　,817-0001
長崎県,対馬市,厳原町曲,　,817-0002
長崎県,対馬市,厳原町南室,　,817-0003
長崎県,対馬市,厳原町桟原,　,817-0005
長崎県,対馬市,厳原町北里,　,817-0006
長崎県,対馬市,厳原町宮谷,　,817-0011
長崎県,対馬市,厳原町日吉,　,817-0012
長崎県,対馬市,厳原町中村,　,817-0013
長崎県,対馬市,厳原町天道茂,　,817-0014
長崎県,対馬市,厳原町西里,　,817-0015
長崎県,対馬市,厳原町東里,　,817-0016
長崎県,対馬市,厳原町今屋敷,　,817-0021
長崎県,対馬市,厳原町国分,　,817-0022
長崎県,対馬市,厳原町田渕,　,817-0023
長崎県,対馬市,厳原町大手橋,　,817-0024
長崎県,対馬市,厳原町久田道,　,817-0031
長崎県,対馬市,厳原町久田,　,817-0032
長崎県,対馬市,厳原町尾浦,　,817-0033
長崎県,対馬市,厳原町安神,　,817-0034
長崎県,対馬市,厳原町久和,　,817-0035
長崎県,対馬市,厳原町与良内院,　,817-0151
長崎県,対馬市,厳原町豆酘内院,　,817-0152
長崎県,対馬市,厳原町浅藻,　,817-0153
長崎県,対馬市,厳原町豆酘,　,817-0154
長崎県,対馬市,厳原町豆酘瀬,　,817-0155
長崎県,対馬市,厳原町佐須瀬,　,817-0156
長崎県,対馬市,厳原町内山,　,817-0157
長崎県,対馬市,厳原町阿連,　,817-0241
長崎県,対馬市,厳原町下原,　,817-0242
長崎県,対馬市,厳原町樫根,　,817-0243
長崎県,対馬市,厳原町久根浜,　,817-0244
長崎県,対馬市,厳原町久根田舎,　,817-0245
長崎県,対馬市,厳原町上槻,　,817-0246
長崎県,対馬市,厳原町椎根,　,817-0247
長崎県,対馬市,厳原町小茂田,　,817-0248
長崎県,対馬市,美津島町洲藻,　,817-0321
長崎県,対馬市,美津島町鶏知,　,817-0322
長崎県,対馬市,美津島町大船越,　,817-0323
長崎県,対馬市,美津島町久須保,　,817-0324
長崎県,対馬市,美津島町緒方,　,817-0325
長崎県,対馬市,美津島町根緒,　,817-0326
長崎県,対馬市,美津島町尾崎,　,817-0431
長崎県,対馬市,美津島町今里,　,817-0432
長崎県,対馬市,美津島町加志,　,817-0433
長崎県,対馬市,美津島町吹崎,　,817-0434
長崎県,対馬市,美津島町箕形,　,817-0435
長崎県,対馬市,美津島町竹敷,　,817-0511
長崎県,対馬市,美津島町黒瀬,　,817-0512
長崎県,対馬市,美津島町昼ケ浦,　,817-0513
長崎県,対馬市,美津島町島山,　,817-0514
長崎県,対馬市,美津島町小船越,　,817-1101
長崎県,対馬市,美津島町芦浦,　,817-1102
長崎県,対馬市,美津島町賀谷,　,817-1103
長崎県,対馬市,美津島町濃部,　,817-1104
長崎県,対馬市,美津島町大山,　,817-1105
長崎県,対馬市,美津島町犬吠,　,817-1106
長崎県,対馬市,美津島町鴨居瀬,　,817-1107
長崎県,対馬市,豊玉町仁位,　,817-1201
長崎県,対馬市,豊玉町和板,　,817-1202
長崎県,対馬市,豊玉町曽,　,817-1212
長崎県,対馬市,豊玉町千尋藻,　,817-1213
長崎県,対馬市,豊玉町鑓川,　,817-1214
長崎県,対馬市,豊玉町横浦,　,817-1223
長崎県,対馬市,豊玉町糸瀬,　,817-1231
長崎県,対馬市,豊玉町嵯峨,　,817-1232
長崎県,対馬市,豊玉町貝鮒,　,817-1233
長崎県,対馬市,豊玉町佐志賀,　,817-1234
長崎県,対馬市,豊玉町貝口,　,817-1241
長崎県,対馬市,豊玉町唐洲,　,817-1245
長崎県,対馬市,豊玉町廻,　,817-1246
長崎県,対馬市,豊玉町田,　,817-1251
長崎県,対馬市,豊玉町大綱,　,817-1252
長崎県,対馬市,豊玉町卯麦,　,817-1253
長崎県,対馬市,豊玉町佐保,　,817-1254
長崎県,対馬市,豊玉町志多浦,　,817-1255
長崎県,対馬市,豊玉町小綱,　,817-1256
長崎県,対馬市,豊玉町銘,　,817-1257
長崎県,対馬市,峰町三根,　,817-1301
長崎県,対馬市,峰町狩尾,　,817-1302
長崎県,対馬市,峰町木坂,　,817-1303
長崎県,対馬市,峰町青海,　,817-1304
長崎県,対馬市,峰町津柳,　,817-1305
長崎県,対馬市,峰町吉田,　,817-1306
長崎県,対馬市,峰町賀佐,　,817-1307
長崎県,対馬市,峰町櫛,　,817-1411
長崎県,対馬市,峰町佐賀,　,817-1412
長崎県,対馬市,峰町志多賀,　,817-1413
長崎県,対馬市,上県町鹿見,　,817-1511
長崎県,対馬市,上県町久原,　,817-1512
長崎県,対馬市,上県町女連,　,817-1513
長崎県,対馬市,上県町飼所,　,817-1521
長崎県,対馬市,上県町樫滝,　,817-1522
長崎県,対馬市,上県町瀬田,　,817-1523
長崎県,対馬市,上県町犬ケ浦,　,817-1524
長崎県,対馬市,上県町御園,　,817-1525
長崎県,対馬市,上県町越高,　,817-1531
長崎県,対馬市,上県町伊奈,　,817-1532
長崎県,対馬市,上県町志多留,　,817-1533
長崎県,対馬市,上県町西津屋,　,817-1601
長崎県,対馬市,上県町佐須奈,　,817-1602
長崎県,対馬市,上県町佐護,　,817-1603
長崎県,対馬市,上対馬町比田勝,　,817-1701
長崎県,対馬市,上対馬町古里,　,817-1702
長崎県,対馬市,上対馬町西泊,　,817-1703
長崎県,対馬市,上対馬町網代,　,817-1704
長崎県,対馬市,上対馬町冨浦,　,817-1711
長崎県,対馬市,上対馬町唐舟志,　,817-1712
長崎県,対馬市,上対馬町浜久須,　,817-1713
長崎県,対馬市,上対馬町玖須,　,817-1714
長崎県,対馬市,上対馬町大増,　,817-1715
長崎県,対馬市,上対馬町河内,　,817-1721
長崎県,対馬市,上対馬町大浦,　,817-1722
長崎県,対馬市,上対馬町鰐浦,　,817-1723
長崎県,対馬市,上対馬町豊,　,817-1724
長崎県,対馬市,上対馬町泉,　,817-1725
長崎県,対馬市,上対馬町小鹿,　,817-2241
長崎県,対馬市,上対馬町一重,　,817-2242
長崎県,対馬市,上対馬町芦見,　,817-2243
長崎県,対馬市,上対馬町琴,　,817-2331
長崎県,対馬市,上対馬町五根緒,　,817-2332
長崎県,対馬市,上対馬町舟志,　,817-2333
長崎県,壱岐市,郷ノ浦町長峰本村触,　,811-5101
長崎県,壱岐市,郷ノ浦町長峰東触,　,811-5102
長崎県,壱岐市,郷ノ浦町新田触,　,811-5103
長崎県,壱岐市,郷ノ浦町里触,　,811-5104
長崎県,壱岐市,郷ノ浦町小牧西触,　,811-5105
長崎県,壱岐市,郷ノ浦町小牧東触,　,811-5106
長崎県,壱岐市,郷ノ浦町有安触,　,811-5107
長崎県,壱岐市,郷ノ浦町半城本村触,　,811-5111
長崎県,壱岐市,郷ノ浦町大浦触,　,811-5112
長崎県,壱岐市,郷ノ浦町牛方触,　,811-5113
長崎県,壱岐市,郷ノ浦町柳田触,　,811-5114
長崎県,壱岐市,郷ノ浦町木田触,　,811-5115
長崎県,壱岐市,郷ノ浦町物部本村触,　,811-5116
長崎県,壱岐市,郷ノ浦町田中触,　,811-5117
長崎県,壱岐市,郷ノ浦町平人触,　,811-5121
長崎県,壱岐市,郷ノ浦町大原触,　,811-5122
長崎県,壱岐市,郷ノ浦町釘山触,　,811-5123
長崎県,壱岐市,郷ノ浦町志原南触,　,811-5124
長崎県,壱岐市,郷ノ浦町志原西触,　,811-5125
長崎県,壱岐市,郷ノ浦町永田触,　,811-5131
長崎県,壱岐市,郷ノ浦町東触,　,811-5132
長崎県,壱岐市,郷ノ浦町本村触,　,811-5133
長崎県,壱岐市,郷ノ浦町庄触,　,811-5134
長崎県,壱岐市,郷ノ浦町郷ノ浦,　,811-5135
長崎県,壱岐市,郷ノ浦町片原触,　,811-5136
長崎県,壱岐市,郷ノ浦町若松触,　,811-5141
長崎県,壱岐市,郷ノ浦町坪触,　,811-5142
長崎県,壱岐市,郷ノ浦町初山西触,　,811-5143
長崎県,壱岐市,郷ノ浦町初山東触,　,811-5144
長崎県,壱岐市,郷ノ浦町渡良浦,　,811-5151
長崎県,壱岐市,郷ノ浦町渡良南触,　,811-5152
長崎県,壱岐市,郷ノ浦町渡良西触,　,811-5153
長崎県,壱岐市,郷ノ浦町渡良東触,　,811-5154
長崎県,壱岐市,郷ノ浦町麦谷触,　,811-5155
長崎県,壱岐市,郷ノ浦町大島,大島,811-5161
長崎県,壱岐市,郷ノ浦町長島,長島,811-5162
長崎県,壱岐市,郷ノ浦町原島,原島,811-5163
長崎県,壱岐市,石田町山崎触,　,811-5201
長崎県,壱岐市,石田町筒城仲触,　,811-5202
長崎県,壱岐市,石田町筒城東触,　,811-5203
長崎県,壱岐市,石田町筒城西触,　,811-5204
長崎県,壱岐市,石田町石田東触,　,811-5211
長崎県,壱岐市,石田町本村触,　,811-5212
長崎県,壱岐市,石田町南触,　,811-5213
長崎県,壱岐市,石田町印通寺浦,　,811-5214
長崎県,壱岐市,石田町石田西触,　,811-5215
長崎県,壱岐市,石田町池田東触,　,811-5221
長崎県,壱岐市,石田町池田仲触,　,811-5222
長崎県,壱岐市,石田町久喜触,　,811-5223
長崎県,壱岐市,石田町池田西触,　,811-5224
長崎県,壱岐市,石田町湯岳興触,　,811-5225
長崎県,壱岐市,石田町湯岳射手吉触,　,811-5226
長崎県,壱岐市,芦辺町芦辺浦,　,811-5301
長崎県,壱岐市,芦辺町諸吉本村触,　,811-5311
長崎県,壱岐市,芦辺町諸吉南触,　,811-5312
長崎県,壱岐市,芦辺町諸吉仲触,　,811-5313
長崎県,壱岐市,芦辺町諸吉東触,　,811-5314
長崎県,壱岐市,芦辺町諸吉二亦触,　,811-5315
長崎県,壱岐市,芦辺町諸吉大石触,　,811-5316
長崎県,壱岐市,芦辺町深江栄触,　,811-5321
長崎県,壱岐市,芦辺町深江鶴亀触,　,811-5322
長崎県,壱岐市,芦辺町深江平触,　,811-5323
長崎県,壱岐市,芦辺町深江東触,　,811-5324
長崎県,壱岐市,芦辺町深江南触,　,811-5325
長崎県,壱岐市,芦辺町深江本村触,　,811-5326
長崎県,壱岐市,芦辺町瀬戸浦,　,811-5461
長崎県,壱岐市,芦辺町箱崎大左右触,　,811-5462
長崎県,壱岐市,芦辺町箱崎中山触,　,811-5463
長崎県,壱岐市,芦辺町箱崎谷江触,　,811-5464
長崎県,壱岐市,芦辺町箱崎釘ノ尾触,　,811-5465
長崎県,壱岐市,芦辺町箱崎本村触,　,811-5466
長崎県,壱岐市,芦辺町箱崎江角触,　,811-5467
長崎県,壱岐市,芦辺町箱崎諸津触,　,811-5468
長崎県,壱岐市,勝本町勝本浦,　,811-5501
長崎県,壱岐市,勝本町仲触,　,811-5511
長崎県,壱岐市,勝本町東触,　,811-5512
長崎県,壱岐市,勝本町北触,　,811-5513
長崎県,壱岐市,勝本町西戸触,　,811-5521
長崎県,壱岐市,勝本町新城東触,　,811-5522
長崎県,壱岐市,勝本町片山触,　,811-5523
長崎県,壱岐市,勝本町坂本触,　,811-5531
長崎県,壱岐市,勝本町大久保触,　,811-5532
長崎県,壱岐市,勝本町新城西触,　,811-5533
長崎県,壱岐市,勝本町本宮西触,　,811-5541
長崎県,壱岐市,勝本町本宮東触,　,811-5542
長崎県,壱岐市,勝本町上場触,　,811-5543
長崎県,壱岐市,勝本町布気触,　,811-5544
長崎県,壱岐市,勝本町本宮南触,　,811-5545
長崎県,壱岐市,勝本町本宮仲触,　,811-5546
長崎県,壱岐市,勝本町湯本浦,　,811-5551
長崎県,壱岐市,勝本町百合畑触,　,811-5552
長崎県,壱岐市,勝本町立石東触,　,811-5553
長崎県,壱岐市,勝本町立石仲触,　,811-5554
長崎県,壱岐市,勝本町立石南触,　,811-5555
長崎県,壱岐市,勝本町立石西触,　,811-5556
長崎県,壱岐市,芦辺町国分当田触,　,811-5731
長崎県,壱岐市,芦辺町国分東触,　,811-5732
長崎県,壱岐市,芦辺町国分川迎触,　,811-5733
長崎県,壱岐市,芦辺町国分本村触,　,811-5734
長崎県,壱岐市,芦辺町住吉山信触,　,811-5741
長崎県,壱岐市,芦辺町住吉東触,　,811-5742
長崎県,壱岐市,芦辺町住吉前触,　,811-5743
長崎県,壱岐市,芦辺町住吉後触,　,811-5744
長崎県,壱岐市,芦辺町中野郷仲触,　,811-5751
長崎県,壱岐市,芦辺町中野郷東触,　,811-5752
長崎県,壱岐市,芦辺町湯岳本村触,　,811-5753
長崎県,壱岐市,芦辺町湯岳今坂触,　,811-5754
長崎県,壱岐市,芦辺町湯岳興触,　,811-5755
長崎県,壱岐市,芦辺町中野郷本村触,　,811-5756
長崎県,壱岐市,芦辺町中野郷西触,　,811-5757
長崎県,五島市,栄町,五島,853-0001
長崎県,五島市,中央町,五島,853-0002
長崎県,五島市,錦町,五島,853-0003
長崎県,五島市,幸町,五島,853-0004
長崎県,五島市,末広町,五島,853-0005
長崎県,五島市,江川町,五島,853-0006
長崎県,五島市,福江町,五島,853-0007
長崎県,五島市,下大津町,五島,853-0011
長崎県,五島市,長手町,五島,853-0012
長崎県,五島市,上大津町,五島,853-0013
長崎県,五島市,三尾野町,五島,853-0014
長崎県,五島市,東浜町,五島,853-0015
長崎県,五島市,紺屋町,五島,853-0016
長崎県,五島市,武家屋敷,五島,853-0017
長崎県,五島市,池田町,五島,853-0018
長崎県,五島市,下崎山町,五島,853-0021
長崎県,五島市,向町,五島,853-0022
長崎県,五島市,上崎山町,五島,853-0023
長崎県,五島市,野々切町,五島,853-0024
長崎県,五島市,小泊町,五島,853-0025
長崎県,五島市,浜町,五島,853-0026
長崎県,五島市,増田町,五島,853-0027
長崎県,五島市,吉久木町,五島,853-0031
長崎県,五島市,大荒町,五島,853-0032
長崎県,五島市,木場町,五島,853-0033
長崎県,五島市,籠淵町,五島,853-0041
長崎県,五島市,吉田町,五島,853-0042
長崎県,五島市,高田町,五島,853-0043
長崎県,五島市,堤町,五島,853-0044
長崎県,五島市,平蔵町,五島,853-0051
長崎県,五島市,松山町,五島,853-0052
長崎県,五島市,奥浦町,五島,853-0053
長崎県,五島市,戸岐町,五島,853-0054
長崎県,五島市,黄島町,黄島,853-0061
長崎県,五島市,赤島町,赤島,853-0062
長崎県,五島市,新港町,五島,853-0063
長崎県,五島市,三尾野,五島,853-0064
長崎県,五島市,坂の上,五島,853-0065
長崎県,五島市,大円寺町,五島,853-0066
長崎県,五島市,富江町富江,五島,853-0201
長崎県,五島市,富江町松尾,五島,853-0202
長崎県,五島市,富江町田尾,五島,853-0203
長崎県,五島市,富江町繁敷,五島,853-0204
長崎県,五島市,富江町狩立,五島,853-0205
長崎県,五島市,富江町山手,五島,853-0206
長崎県,五島市,富江町長峰,五島,853-0207
長崎県,五島市,富江町黒島,黒島,853-0208
長崎県,五島市,富江町黒瀬,五島,853-0211
長崎県,五島市,富江町山下,五島,853-0212
長崎県,五島市,富江町岳,五島,853-0213
長崎県,五島市,富江町土取,五島,853-0214
長崎県,五島市,富江町職人,五島,853-0215
長崎県,五島市,岐宿町二本楠,五島,853-0311
長崎県,五島市,岐宿町中嶽,五島,853-0312
長崎県,五島市,岐宿町松山,五島,853-0313
長崎県,五島市,玉之浦町玉之浦,五島,853-0411
長崎県,五島市,玉之浦町立谷,五島,853-0412
長崎県,五島市,玉之浦町大宝,五島,853-0413
長崎県,五島市,玉之浦町荒川,五島,853-0501
長崎県,五島市,玉之浦町幾久山,五島,853-0502
長崎県,五島市,玉之浦町小川,五島,853-0503
長崎県,五島市,玉之浦町丹奈,五島,853-0504
長崎県,五島市,玉之浦町中須,五島,853-0505
長崎県,五島市,玉之浦町上の平,五島,853-0506
長崎県,五島市,玉之浦町頓泊,五島,853-0507
長崎県,五島市,玉之浦町布浦,五島,853-0508
長崎県,五島市,三井楽町濱ノ畔,五島,853-0601
長崎県,五島市,三井楽町大川,五島,853-0602
長崎県,五島市,三井楽町柏,五島,853-0603
長崎県,五島市,三井楽町貝津,五島,853-0604
長崎県,五島市,三井楽町濱窄,五島,853-0605
長崎県,五島市,三井楽町丑ノ浦,五島,853-0606
長崎県,五島市,三井楽町嶽,五島,853-0607
長崎県,五島市,三井楽町波砂間,五島,853-0608
長崎県,五島市,三井楽町渕ノ元,五島,853-0609
長崎県,五島市,三井楽町嵯峨島,嵯峨島,853-0611
長崎県,五島市,三井楽町高崎,五島,853-0612
長崎県,五島市,三井楽町塩水,五島,853-0613
長崎県,五島市,岐宿町岐宿,五島,853-0701
長崎県,五島市,岐宿町川原,五島,853-0702
長崎県,五島市,岐宿町楠原,五島,853-0703
長崎県,五島市,岐宿町河務,五島,853-0704
長崎県,五島市,岐宿町戸岐ノ首,五島,853-0705
長崎県,五島市,岐宿町唐船ノ浦,五島,853-0706
長崎県,五島市,久賀町,久賀,853-2171
長崎県,五島市,蕨町,久賀,853-2172
長崎県,五島市,田ノ浦町,久賀,853-2173
長崎県,五島市,猪之木町,久賀,853-2174
長崎県,五島市,奈留町浦,奈留,853-2201
長崎県,五島市,奈留町大串,奈留,853-2202
長崎県,五島市,奈留町泊,奈留,853-2203
長崎県,五島市,奈留町船廻,奈留,853-2204
長崎県,五島市,伊福貴町,椛島,853-2481
長崎県,五島市,本窯町,椛島,853-2482
長崎県,西海市,大瀬戸町松島外郷,松島,857-2532
長崎県,北松浦郡小値賀町,笛吹郷,小値賀島,857-4701
長崎県,北松浦郡小値賀町,前方郷,小値賀島,857-4702
長崎県,北松浦郡小値賀町,中村郷,小値賀島,857-4703
長崎県,北松浦郡小値賀町,柳郷,小値賀島,857-4704
長崎県,北松浦郡小値賀町,浜津郷,小値賀島,857-4705
長崎県,北松浦郡小値賀町,黒島郷,黒島,857-4706
長崎県,北松浦郡小値賀町,班島郷,斑島,857-4707
長崎県,北松浦郡小値賀町,大島郷,大島,857-4708
長崎県,北松浦郡小値賀町,野崎郷,野崎,857-4709
長崎県,北松浦郡小値賀町,納島郷,納島,857-4711
長崎県,北松浦郡小値賀町,六島郷,六島,857-4712
長崎県,南松浦郡新上五島町,若松郷,若松島,853-2301
長崎県,南松浦郡新上五島町,桐古里郷,中通島,853-2302
長崎県,南松浦郡新上五島町,宿ノ浦郷,中通島,853-2303
長崎県,南松浦郡新上五島町,荒川郷,中通島,853-2304
長崎県,南松浦郡新上五島町,西神ノ浦郷,若松島,853-2305
長崎県,南松浦郡新上五島町,榊ノ浦郷,若松島,853-2311
長崎県,南松浦郡新上五島町,日島郷,日島,853-2312
長崎県,南松浦郡新上五島町,有福郷,有福島,853-2313
長崎県,南松浦郡新上五島町,漁生浦郷,漁生ケ浦島,853-2314
長崎県,南松浦郡新上五島町,間伏郷,若松島,853-2315
長崎県,南松浦郡新上五島町,奈良尾郷,中通島,853-3101
長崎県,南松浦郡新上五島町,岩瀬浦郷,中通島,853-3102
長崎県,南松浦郡新上五島町,鯛ノ浦郷,中通島,853-3321
長崎県,南松浦郡新上五島町,阿瀬津郷,中通島,853-3322
長崎県,南松浦郡新上五島町,東神ノ浦郷,中通島,853-3323
長崎県,南松浦郡新上五島町,赤尾郷,中通島,857-4101
長崎県,南松浦郡新上五島町,友住郷,頭ケ島,857-4102
長崎県,南松浦郡新上五島町,江ノ浜郷,中通島,857-4103
長崎県,南松浦郡新上五島町,有川郷,中通島,857-4211
長崎県,南松浦郡新上五島町,小河原郷,中通島,857-4212
長崎県,南松浦郡新上五島町,太田郷,中通島,857-4213
長崎県,南松浦郡新上五島町,七目郷,中通島,857-4214
長崎県,南松浦郡新上五島町,網上郷,中通島,857-4401
長崎県,南松浦郡新上五島町,奈摩郷,中通島,857-4402
長崎県,南松浦郡新上五島町,青方郷,中通島,857-4404
長崎県,南松浦郡新上五島町,船崎郷,中通島,857-4405
長崎県,南松浦郡新上五島町,相河郷,中通島,857-4411
長崎県,南松浦郡新上五島町,三日ノ浦郷,中通島,857-4412
長崎県,南松浦郡新上五島町,今里郷,中通島,857-4413
長崎県,南松浦郡新上五島町,飯ノ瀬戸郷,中通島,857-4414
長崎県,南松浦郡新上五島町,続浜ノ浦郷,中通島,857-4415
長崎県,南松浦郡新上五島町,道土井郷,中通島,857-4416
長崎県,南松浦郡新上五島町,浦桑郷,中通島,857-4511
長崎県,南松浦郡新上五島町,榎津郷,中通島,857-4512
長崎県,南松浦郡新上五島町,丸尾郷,中通島,857-4513
長崎県,南松浦郡新上五島町,似首郷,中通島,857-4514
長崎県,南松浦郡新上五島町,小串郷,中通島,857-4601
長崎県,南松浦郡新上五島町,曽根郷,中通島,857-4602
長崎県,南松浦郡新上五島町,立串郷,中通島,857-4603
長崎県,南松浦郡新上五島町,津和崎郷,中通島,857-4604
熊本県,上天草市,大矢野町湯島,湯島,869-3711
熊本県,天草市,御所浦町横浦,横浦,866-0303
熊本県,天草市,御所浦町御所浦,御所浦,866-0313
熊本県,天草市,御所浦町牧島,牧島,866-0334
大分県,佐伯市,高松浦,大入島,876-0001
大分県,佐伯市,日向泊浦,大入島,876-0002
大分県,佐伯市,塩内浦,大入島,876-0003
大分県,佐伯市,荒網代浦,大入島,876-0004
大分県,佐伯市,石間浦,大入島,876-0005
大分県,佐伯市,守後浦,大入島,876-0006
大分県,佐伯市,久保浦,大入島,876-0007
大分県,佐伯市,片神浦,大入島,876-0008
大分県,佐伯市,鶴見大島,大島,876-1313
大分県,津久見市,保戸島,保戸島,879-2501
大分県,東国東郡姫島村,　,姫島,872-1501
宮崎県,延岡市,島浦町,島浦,882-0096
鹿児島県,西之表市,西之表,種子島,891-3101
鹿児島県,西之表市,安納,種子島,891-3102
鹿児島県,西之表市,現和,種子島,891-3103
鹿児島県,西之表市,住吉,種子島,891-3104
鹿児島県,西之表市,西町,種子島,891-3111
鹿児島県,西之表市,栄町,種子島,891-3112
鹿児島県,西之表市,東町,種子島,891-3113
鹿児島県,西之表市,池田,種子島,891-3114
鹿児島県,西之表市,天神町,種子島,891-3115
鹿児島県,西之表市,鴨女町,種子島,891-3116
鹿児島県,西之表市,桜が丘,種子島,891-3117
鹿児島県,西之表市,馬毛島,種子島,891-3118
鹿児島県,西之表市,安納,種子島,891-3202
鹿児島県,西之表市,伊関,種子島,891-3221
鹿児島県,西之表市,国上,種子島,891-3222
鹿児島県,西之表市,古田,種子島,891-3431
鹿児島県,西之表市,安城,種子島,891-3432
鹿児島県,薩摩川内市,里町里,甑　島,896-1101
鹿児島県,薩摩川内市,上甑町中甑,甑　島,896-1201
鹿児島県,薩摩川内市,上甑町中野,甑　島,896-1202
鹿児島県,薩摩川内市,上甑町江石,甑　島,896-1203
鹿児島県,薩摩川内市,上甑町小島,甑　島,896-1204
鹿児島県,薩摩川内市,上甑町瀬上,甑　島,896-1205
鹿児島県,薩摩川内市,上甑町桑之浦,甑　島,896-1206
鹿児島県,薩摩川内市,上甑町平良,甑　島,896-1281
鹿児島県,薩摩川内市,鹿島町藺牟田,甑　島,896-1301
鹿児島県,薩摩川内市,下甑町長浜,甑　島,896-1411
鹿児島県,薩摩川内市,下甑町瀬々野浦,甑　島,896-1412
鹿児島県,薩摩川内市,下甑町瀬々野浦,甑　島,896-1512
鹿児島県,薩摩川内市,下甑町青瀬,甑　島,896-1521
鹿児島県,薩摩川内市,下甑町手打,甑　島,896-1601
鹿児島県,薩摩川内市,下甑町片野浦,甑　島,896-1602
鹿児島県,奄美市,名瀬大熊,　,894-0001
鹿児島県,奄美市,名瀬有屋,　,894-0002
鹿児島県,奄美市,名瀬仲勝,　,894-0003
鹿児島県,奄美市,名瀬鳩浜町,　,894-0004
鹿児島県,奄美市,名瀬佐大熊町,　,894-0005
鹿児島県,奄美市,名瀬小浜町,　,894-0006
鹿児島県,奄美市,名瀬和光町,　,894-0007
鹿児島県,奄美市,名瀬浦上,　,894-0008
鹿児島県,奄美市,名瀬安勝町,　,894-0011
鹿児島県,奄美市,名瀬小俣町,　,894-0012
鹿児島県,奄美市,名瀬春日町,　,894-0013
鹿児島県,奄美市,名瀬平田町,　,894-0014
鹿児島県,奄美市,名瀬真名津町,　,894-0015
鹿児島県,奄美市,名瀬古田町,　,894-0016
鹿児島県,奄美市,名瀬石橋町,　,894-0017
鹿児島県,奄美市,名瀬伊津部町,　,894-0021
鹿児島県,奄美市,名瀬久里町,　,894-0022
鹿児島県,奄美市,名瀬永田町,　,894-0023
鹿児島県,奄美市,名瀬井根町,　,894-0024
鹿児島県,奄美市,名瀬幸町,　,894-0025
鹿児島県,奄美市,名瀬港町,　,894-0026
鹿児島県,奄美市,名瀬末広町,　,894-0027
鹿児島県,奄美市,名瀬金久町,　,894-0031
鹿児島県,奄美市,名瀬柳町,　,894-0032
鹿児島県,奄美市,名瀬矢之脇町,　,894-0033
鹿児島県,奄美市,名瀬入舟町,　,894-0034
鹿児島県,奄美市,名瀬塩浜町,　,894-0035
鹿児島県,奄美市,名瀬長浜町,　,894-0036
鹿児島県,奄美市,名瀬朝仁新町,　,894-0041
鹿児島県,奄美市,名瀬朝仁町,　,894-0042
鹿児島県,奄美市,名瀬朝仁,　,894-0043
鹿児島県,奄美市,名瀬浜里町,　,894-0044
鹿児島県,奄美市,名瀬平松町,　,894-0045
鹿児島県,奄美市,名瀬小宿,　,894-0046
鹿児島県,奄美市,名瀬知名瀬,　,894-0047
鹿児島県,奄美市,名瀬根瀬部,　,894-0048
鹿児島県,奄美市,名瀬朝日町,　,894-0061
鹿児島県,奄美市,名瀬有屋町,　,894-0062
鹿児島県,奄美市,名瀬仲勝町,　,894-0063
鹿児島県,奄美市,名瀬浦上町,　,894-0068
鹿児島県,奄美市,名瀬浦上,　,894-0108
鹿児島県,奄美市,名瀬芦花部,　,894-0351
鹿児島県,奄美市,名瀬有良,　,894-0352
鹿児島県,奄美市,笠利町宇宿,　,894-0501
鹿児島県,奄美市,笠利町万屋,　,894-0502
鹿児島県,奄美市,笠利町和野,　,894-0503
鹿児島県,奄美市,笠利町節田,　,894-0504
鹿児島県,奄美市,笠利町平,　,894-0505
鹿児島県,奄美市,笠利町手花部,　,894-0506
鹿児島県,奄美市,笠利町喜瀬,　,894-0507
鹿児島県,奄美市,笠利町用安,　,894-0508
鹿児島県,奄美市,笠利町里,　,894-0511
鹿児島県,奄美市,笠利町中金久,　,894-0512
鹿児島県,奄美市,笠利町外金久,　,894-0513
鹿児島県,奄美市,笠利町用,　,894-0621
鹿児島県,奄美市,笠利町笠利,　,894-0622
鹿児島県,奄美市,笠利町辺留,　,894-0623
鹿児島県,奄美市,笠利町須野,　,894-0624
鹿児島県,奄美市,笠利町川上,　,894-0625
鹿児島県,奄美市,笠利町屋仁,　,894-0626
鹿児島県,奄美市,笠利町佐仁,　,894-0627
鹿児島県,奄美市,名瀬小湊,　,894-0771
鹿児島県,奄美市,名瀬西仲勝,　,894-0772
鹿児島県,奄美市,名瀬朝戸,　,894-0773
鹿児島県,奄美市,名瀬伊津部勝,　,894-0774
鹿児島県,奄美市,名瀬名瀬勝,　,894-0775
鹿児島県,奄美市,名瀬崎原,　,894-0776
鹿児島県,奄美市,住用町城,　,894-1111
鹿児島県,奄美市,住用町和瀬,　,894-1112
鹿児島県,奄美市,住用町見里,　,894-1113
鹿児島県,奄美市,住用町東仲間,　,894-1114
鹿児島県,奄美市,住用町川内,　,894-1115
鹿児島県,奄美市,住用町摺勝,　,894-1116
鹿児島県,奄美市,住用町石原,　,894-1201
鹿児島県,奄美市,住用町西仲間,　,894-1202
鹿児島県,奄美市,住用町神屋,　,894-1203
鹿児島県,奄美市,住用町山間,　,894-1204
鹿児島県,奄美市,住用町役勝,　,894-1205
鹿児島県,奄美市,住用町山間,　,894-1304
鹿児島県,奄美市,住用町市,　,894-1321
鹿児島県,鹿児島郡三島村,硫黄島,硫黄島,890-0901
鹿児島県,鹿児島郡三島村,黒島,黒島,890-0902
鹿児島県,鹿児島郡三島村,竹島,竹島,890-0903
鹿児島県,鹿児島郡十島村,口之島,口之島,891-5101
鹿児島県,鹿児島郡十島村,中之島,中之島,891-5201
鹿児島県,鹿児島郡十島村,平島,平島,891-5202
鹿児島県,鹿児島郡十島村,諏訪之瀬島,諏訪之瀬島,891-5203
鹿児島県,鹿児島郡十島村,悪石島,悪石島,891-5204
鹿児島県,鹿児島郡十島村,小宝島,小宝島,891-5205
鹿児島県,鹿児島郡十島村,宝島,宝島,891-5301
鹿児島県,出水郡長島町,獅子島,獅子島,899-1501
鹿児島県,熊毛郡中種子町,納官,種子島,891-3601
鹿児島県,熊毛郡中種子町,牧川,種子島,891-3602
鹿児島県,熊毛郡中種子町,増田,種子島,891-3603
鹿児島県,熊毛郡中種子町,野間,種子島,891-3604
鹿児島県,熊毛郡中種子町,油久,種子島,891-3605
鹿児島県,熊毛郡中種子町,坂井,種子島,891-3606
鹿児島県,熊毛郡中種子町,田島,種子島,891-3607
鹿児島県,熊毛郡南種子町,中之上,種子島,891-3701
鹿児島県,熊毛郡南種子町,平山,種子島,891-3702
鹿児島県,熊毛郡南種子町,茎永,種子島,891-3703
鹿児島県,熊毛郡南種子町,中之下,種子島,891-3704
鹿児島県,熊毛郡南種子町,西之,種子島,891-3705
鹿児島県,熊毛郡南種子町,島間,種子島,891-3706
鹿児島県,熊毛郡上屋久町,永田,屋久島,891-4201
鹿児島県,熊毛郡上屋久町,吉田,屋久島,891-4202
鹿児島県,熊毛郡上屋久町,一湊,屋久島,891-4203
鹿児島県,熊毛郡上屋久町,志戸子,屋久島,891-4204
鹿児島県,熊毛郡上屋久町,宮之浦,屋久島,891-4205
鹿児島県,熊毛郡上屋久町,楠川,屋久島,891-4206
鹿児島県,熊毛郡上屋久町,小瀬田,屋久島,891-4207
鹿児島県,熊毛郡上屋久町,口永良部島,屋久島,891-4208
鹿児島県,熊毛郡屋久町,安房,屋久島,891-4311
鹿児島県,熊毛郡屋久町,船行,屋久島,891-4312
鹿児島県,熊毛郡屋久町,高平,屋久島,891-4401
鹿児島県,熊毛郡屋久町,麦生,屋久島,891-4402
鹿児島県,熊毛郡屋久町,原,屋久島,891-4403
鹿児島県,熊毛郡屋久町,尾之間,屋久島,891-4404
鹿児島県,熊毛郡屋久町,小島,屋久島,891-4405
鹿児島県,熊毛郡屋久町,平内,屋久島,891-4406
鹿児島県,熊毛郡屋久町,湯泊,屋久島,891-4407
鹿児島県,熊毛郡屋久町,中間,屋久島,891-4408
鹿児島県,熊毛郡屋久町,栗生,屋久島,891-4409
鹿児島県,大島郡大和村,国直,　,894-3101
鹿児島県,大島郡大和村,湯湾釜,　,894-3102
鹿児島県,大島郡大和村,津名久,　,894-3103
鹿児島県,大島郡大和村,思勝,　,894-3104
鹿児島県,大島郡大和村,大和浜,　,894-3105
鹿児島県,大島郡大和村,大棚,　,894-3106
鹿児島県,大島郡大和村,大金久,　,894-3107
鹿児島県,大島郡大和村,戸円,　,894-3211
鹿児島県,大島郡大和村,名音,　,894-3212
鹿児島県,大島郡大和村,志戸勘,　,894-3213
鹿児島県,大島郡大和村,今里,　,894-3214
鹿児島県,大島郡宇検村,湯湾,　,894-3301
鹿児島県,大島郡宇検村,芦検,　,894-3302
鹿児島県,大島郡宇検村,田検,　,894-3303
鹿児島県,大島郡宇検村,須古,　,894-3304
鹿児島県,大島郡宇検村,石良,　,894-3305
鹿児島県,大島郡宇検村,宇検,　,894-3411
鹿児島県,大島郡宇検村,久志,　,894-3412
鹿児島県,大島郡宇検村,生勝,　,894-3413
鹿児島県,大島郡宇検村,名柄,　,894-3521
鹿児島県,大島郡宇検村,佐念,　,894-3522
鹿児島県,大島郡宇検村,部連,　,894-3523
鹿児島県,大島郡宇検村,平田,　,894-3631
鹿児島県,大島郡宇検村,阿室,　,894-3632
鹿児島県,大島郡宇検村,屋鈍,　,894-3633
鹿児島県,大島郡瀬戸内町,古仁屋,　,894-1501
鹿児島県,大島郡瀬戸内町,古仁屋,　,894-1502
鹿児島県,大島郡瀬戸内町,古仁屋,　,894-1503
鹿児島県,大島郡瀬戸内町,古仁屋,　,894-1504
鹿児島県,大島郡瀬戸内町,古仁屋,　,894-1505
鹿児島県,大島郡瀬戸内町,古仁屋,　,894-1506
鹿児島県,大島郡瀬戸内町,古仁屋,　,894-1507
鹿児島県,大島郡瀬戸内町,古仁屋,　,894-1508
鹿児島県,大島郡瀬戸内町,阿木名,　,894-1511
鹿児島県,大島郡瀬戸内町,勝浦,　,894-1512
鹿児島県,大島郡瀬戸内町,網野子,　,894-1513
鹿児島県,大島郡瀬戸内町,節子,　,894-1514
鹿児島県,大島郡瀬戸内町,嘉徳,　,894-1515
鹿児島県,大島郡瀬戸内町,清水,　,894-1521
鹿児島県,大島郡瀬戸内町,嘉鉄,　,894-1522
鹿児島県,大島郡瀬戸内町,蘇刈,　,894-1523
鹿児島県,大島郡瀬戸内町,伊須,　,894-1524
鹿児島県,大島郡瀬戸内町,手安,　,894-1531
鹿児島県,大島郡瀬戸内町,篠川,　,894-1741
鹿児島県,大島郡瀬戸内町,阿室釜,　,894-1742
鹿児島県,大島郡瀬戸内町,小名瀬,　,894-1743
鹿児島県,大島郡瀬戸内町,阿鉄,　,894-1744
鹿児島県,大島郡瀬戸内町,油井,　,894-1745
鹿児島県,大島郡瀬戸内町,久根津,　,894-1746
鹿児島県,大島郡瀬戸内町,久慈,　,894-1851
鹿児島県,大島郡瀬戸内町,古志,　,894-1852
鹿児島県,大島郡瀬戸内町,花天,　,894-1853
鹿児島県,大島郡瀬戸内町,管鈍,　,894-1854
鹿児島県,大島郡瀬戸内町,西古見,　,894-1855
鹿児島県,大島郡瀬戸内町,諸鈍,　,894-2141
鹿児島県,大島郡瀬戸内町,生間,　,894-2142
鹿児島県,大島郡瀬戸内町,渡連,　,894-2143
鹿児島県,大島郡瀬戸内町,諸数,　,894-2144
鹿児島県,大島郡瀬戸内町,押角,　,894-2231
鹿児島県,大島郡瀬戸内町,勝能,　,894-2232
鹿児島県,大島郡瀬戸内町,野見山,　,894-2233
鹿児島県,大島郡瀬戸内町,秋徳,　,894-2234
鹿児島県,大島郡瀬戸内町,於斉,　,894-2235
鹿児島県,大島郡瀬戸内町,伊子茂,　,894-2236
鹿児島県,大島郡瀬戸内町,花富,　,894-2237
鹿児島県,大島郡瀬戸内町,西阿室,　,894-2321
鹿児島県,大島郡瀬戸内町,瀬相,　,894-2322
鹿児島県,大島郡瀬戸内町,俵,　,894-2323
鹿児島県,大島郡瀬戸内町,瀬武,　,894-2401
鹿児島県,大島郡瀬戸内町,薩川,　,894-2402
鹿児島県,大島郡瀬戸内町,実久,　,894-2403
鹿児島県,大島郡瀬戸内町,芝,　,894-2404
鹿児島県,大島郡瀬戸内町,阿多地,　,894-2411
鹿児島県,大島郡瀬戸内町,須子茂,　,894-2412
鹿児島県,大島郡瀬戸内町,嘉入,　,894-2413
鹿児島県,大島郡瀬戸内町,三浦,　,894-2414
鹿児島県,大島郡瀬戸内町,知之浦,　,894-2415
鹿児島県,大島郡瀬戸内町,武名,　,894-2416
鹿児島県,大島郡瀬戸内町,木慈,　,894-2417
鹿児島県,大島郡瀬戸内町,池地,請島,894-2501
鹿児島県,大島郡瀬戸内町,請阿室,請島,894-2502
鹿児島県,大島郡瀬戸内町,与路,与路島,894-2601
鹿児島県,大島郡龍郷町,屋入,　,894-0101
鹿児島県,大島郡龍郷町,瀬留,　,894-0102
鹿児島県,大島郡龍郷町,玉里,　,894-0103
鹿児島県,大島郡龍郷町,浦,　,894-0104
鹿児島県,大島郡龍郷町,大勝,　,894-0105
鹿児島県,大島郡龍郷町,中勝,　,894-0106
鹿児島県,大島郡龍郷町,戸口,　,894-0107
鹿児島県,大島郡龍郷町,龍郷,　,894-0321
鹿児島県,大島郡龍郷町,久場,　,894-0322
鹿児島県,大島郡龍郷町,安木屋場,　,894-0323
鹿児島県,大島郡龍郷町,円,　,894-0324
鹿児島県,大島郡龍郷町,嘉渡,　,894-0331
鹿児島県,大島郡龍郷町,幾里,　,894-0332
鹿児島県,大島郡龍郷町,秋名,　,894-0333
鹿児島県,大島郡龍郷町,赤尾木,　,894-0411
鹿児島県,大島郡龍郷町,芦徳,　,894-0412
鹿児島県,大島郡喜界町,伊実久,喜界島,891-6141
鹿児島県,大島郡喜界町,小野津,喜界島,891-6142
鹿児島県,大島郡喜界町,志戸桶,喜界島,891-6143
鹿児島県,大島郡喜界町,佐手久,喜界島,891-6144
鹿児島県,大島郡喜界町,塩道,喜界島,891-6151
鹿児島県,大島郡喜界町,早町,喜界島,891-6152
鹿児島県,大島郡喜界町,長嶺,喜界島,891-6153
鹿児島県,大島郡喜界町,白水,喜界島,891-6154
鹿児島県,大島郡喜界町,嘉鈍,喜界島,891-6161
鹿児島県,大島郡喜界町,阿伝,喜界島,891-6162
鹿児島県,大島郡喜界町,花良治,喜界島,891-6163
鹿児島県,大島郡喜界町,花良治,喜界島,891-6164
鹿児島県,大島郡喜界町,赤連,喜界島,891-6201
鹿児島県,大島郡喜界町,湾,喜界島,891-6202
鹿児島県,大島郡喜界町,中里,喜界島,891-6203
鹿児島県,大島郡喜界町,中間,喜界島,891-6211
鹿児島県,大島郡喜界町,中熊,喜界島,891-6212
鹿児島県,大島郡喜界町,大朝戸,喜界島,891-6213
鹿児島県,大島郡喜界町,西目,喜界島,891-6214
鹿児島県,大島郡喜界町,中熊,喜界島,891-6215
鹿児島県,大島郡喜界町,坂嶺,喜界島,891-6216
鹿児島県,大島郡喜界町,伊砂,喜界島,891-6217
鹿児島県,大島郡喜界町,池治,喜界島,891-6221
鹿児島県,大島郡喜界町,島中,喜界島,891-6222
鹿児島県,大島郡喜界町,滝川,喜界島,891-6223
鹿児島県,大島郡喜界町,城久,喜界島,891-6224
鹿児島県,大島郡喜界町,山田,喜界島,891-6225
鹿児島県,大島郡喜界町,羽里,喜界島,891-6226
鹿児島県,大島郡喜界町,川嶺,喜界島,891-6227
鹿児島県,大島郡喜界町,浦原,喜界島,891-6228
鹿児島県,大島郡喜界町,先山,喜界島,891-6229
鹿児島県,大島郡喜界町,荒木,喜界島,891-6231
鹿児島県,大島郡喜界町,手久津久,喜界島,891-6232
鹿児島県,大島郡喜界町,上嘉鉄,喜界島,891-6233
鹿児島県,大島郡徳之島町,亀津,徳之島,891-7101
鹿児島県,大島郡徳之島町,亀徳,徳之島,891-7102
鹿児島県,大島郡徳之島町,南原,徳之島,891-7103
鹿児島県,大島郡徳之島町,尾母,徳之島,891-7104
鹿児島県,大島郡徳之島町,白井,徳之島,891-7105
鹿児島県,大島郡徳之島町,徳和瀬,徳之島,891-7111
鹿児島県,大島郡徳之島町,諸田,徳之島,891-7112
鹿児島県,大島郡徳之島町,神之嶺,徳之島,891-7113
鹿児島県,大島郡徳之島町,井之川,徳之島,891-7114
鹿児島県,大島郡徳之島町,下久志,徳之島,891-7115
鹿児島県,大島郡徳之島町,旭ケ丘,徳之島,891-7116
鹿児島県,大島郡徳之島町,手々,徳之島,891-7421
鹿児島県,大島郡徳之島町,金見,徳之島,891-7422
鹿児島県,大島郡徳之島町,山,徳之島,891-7423
鹿児島県,大島郡徳之島町,轟木,徳之島,891-7424
鹿児島県,大島郡徳之島町,花徳,徳之島,891-7425
鹿児島県,大島郡徳之島町,母間,徳之島,891-7426
鹿児島県,大島郡天城町,与名間,徳之島,891-7601
鹿児島県,大島郡天城町,松原,徳之島,891-7602
鹿児島県,大島郡天城町,岡前,徳之島,891-7603
鹿児島県,大島郡天城町,前野,徳之島,891-7604
鹿児島県,大島郡天城町,浅間,徳之島,891-7605
鹿児島県,大島郡天城町,天城,徳之島,891-7611
鹿児島県,大島郡天城町,平土野,徳之島,891-7612
鹿児島県,大島郡天城町,兼久,徳之島,891-7621
鹿児島県,大島郡天城町,大津川,徳之島,891-7622
鹿児島県,大島郡天城町,瀬滝,徳之島,891-7623
鹿児島県,大島郡天城町,当部,徳之島,891-7624
鹿児島県,大島郡天城町,西阿木名,徳之島,891-7731
鹿児島県,大島郡伊仙町,喜念,徳之島,891-8111
鹿児島県,大島郡伊仙町,佐弁,徳之島,891-8112
鹿児島県,大島郡伊仙町,目手久,徳之島,891-8113
鹿児島県,大島郡伊仙町,面縄,徳之島,891-8114
鹿児島県,大島郡伊仙町,古里,徳之島,891-8115
鹿児島県,大島郡伊仙町,検福,徳之島,891-8116
鹿児島県,大島郡伊仙町,中山,徳之島,891-8117
鹿児島県,大島郡伊仙町,伊仙,徳之島,891-8201
鹿児島県,大島郡伊仙町,検福,徳之島,891-8216
鹿児島県,大島郡伊仙町,阿三,徳之島,891-8221
鹿児島県,大島郡伊仙町,阿三,徳之島,891-8321
鹿児島県,大島郡伊仙町,阿権,徳之島,891-8322
鹿児島県,大島郡伊仙町,木之香,徳之島,891-8323
鹿児島県,大島郡伊仙町,糸木名,徳之島,891-8324
鹿児島県,大島郡伊仙町,八重竿,徳之島,891-8325
鹿児島県,大島郡伊仙町,馬根,徳之島,891-8326
鹿児島県,大島郡伊仙町,犬田布,徳之島,891-8327
鹿児島県,大島郡伊仙町,崎原,徳之島,891-8328
鹿児島県,大島郡伊仙町,小島,徳之島,891-8329
鹿児島県,大島郡和泊町,国頭,沖永良部島,891-9101
鹿児島県,大島郡和泊町,喜美留,沖永良部島,891-9102
鹿児島県,大島郡和泊町,出花,沖永良部島,891-9103
鹿児島県,大島郡和泊町,西原,沖永良部島,891-9104
鹿児島県,大島郡和泊町,手々知名,沖永良部島,891-9111
鹿児島県,大島郡和泊町,和泊,沖永良部島,891-9112
鹿児島県,大島郡和泊町,和,沖永良部島,891-9113
鹿児島県,大島郡和泊町,畦布,沖永良部島,891-9114
鹿児島県,大島郡和泊町,伊延,沖永良部島,891-9115
鹿児島県,大島郡和泊町,上手々知名,沖永良部島,891-9116
鹿児島県,大島郡和泊町,根折,沖永良部島,891-9121
鹿児島県,大島郡和泊町,玉城,沖永良部島,891-9122
鹿児島県,大島郡和泊町,皆川,沖永良部島,891-9123
鹿児島県,大島郡和泊町,古里,沖永良部島,891-9124
鹿児島県,大島郡和泊町,大城,沖永良部島,891-9125
鹿児島県,大島郡和泊町,内城,沖永良部島,891-9131
鹿児島県,大島郡和泊町,後蘭,沖永良部島,891-9132
鹿児島県,大島郡和泊町,谷山,沖永良部島,891-9133
鹿児島県,大島郡和泊町,仁志,沖永良部島,891-9134
鹿児島県,大島郡和泊町,永嶺,沖永良部島,891-9135
鹿児島県,大島郡和泊町,瀬名,沖永良部島,891-9136
鹿児島県,大島郡知名町,余多,沖永良部島,891-9201
鹿児島県,大島郡知名町,屋者,沖永良部島,891-9202
鹿児島県,大島郡知名町,下平川,沖永良部島,891-9203
鹿児島県,大島郡知名町,上平川,沖永良部島,891-9204
鹿児島県,大島郡知名町,久志検,沖永良部島,891-9205
鹿児島県,大島郡知名町,赤嶺,沖永良部島,891-9206
鹿児島県,大島郡知名町,竿津,沖永良部島,891-9207
鹿児島県,大島郡知名町,芦清良,沖永良部島,891-9211
鹿児島県,大島郡知名町,黒貫,沖永良部島,891-9212
鹿児島県,大島郡知名町,瀬利覚,沖永良部島,891-9213
鹿児島県,大島郡知名町,知名,沖永良部島,891-9214
鹿児島県,大島郡知名町,屋子母,沖永良部島,891-9215
鹿児島県,大島郡知名町,大津勘,沖永良部島,891-9221
鹿児島県,大島郡知名町,徳時,沖永良部島,891-9222
鹿児島県,大島郡知名町,住吉,沖永良部島,891-9223
鹿児島県,大島郡知名町,正名,沖永良部島,891-9224
鹿児島県,大島郡知名町,田皆,沖永良部島,891-9231
鹿児島県,大島郡知名町,新城,沖永良部島,891-9232
鹿児島県,大島郡知名町,下城,沖永良部島,891-9233
鹿児島県,大島郡知名町,上城,沖永良部島,891-9234
鹿児島県,大島郡与論町,茶花,与論島,891-9301
鹿児島県,大島郡与論町,立長,与論島,891-9302
鹿児島県,大島郡与論町,城,与論島,891-9303
鹿児島県,大島郡与論町,朝戸,与論島,891-9304
鹿児島県,大島郡与論町,西区,与論島,891-9305
鹿児島県,大島郡与論町,東区,与論島,891-9306
鹿児島県,大島郡与論町,古里,与論島,891-9307
鹿児島県,大島郡与論町,那間,与論島,891-9308
鹿児島県,大島郡与論町,叶,与論島,891-9309
